{
"type": "FeatureCollection",
"name": "slo",
"crs": { "type": "name", "properties": { "name": "urn:ogc:def:crs:OGC:1.3:CRS84" } },
"features": [
{ "type": "Feature", "properties": { "Name": "Amtrak Station", "description": "stop_id: 0356\nagency: City of San Luis Obispo Transit", "tessellate": -1, "extrude": 0, "visibility": -1 }, "geometry": { "type": "Point", "coordinates": [ -120.654884, 35.276119, 0.0 ] } },
{ "type": "Feature", "properties": { "Name": "Augusta at Bishop", "description": "stop_id: 0134\nagency: City of San Luis Obispo Transit", "tessellate": -1, "extrude": 0, "visibility": -1 }, "geometry": { "type": "Point", "coordinates": [ -120.647728, 35.272881, 0.0 ] } },
{ "type": "Feature", "properties": { "Name": "Augusta at Gerda", "description": "stop_id: 0132\nagency: City of San Luis Obispo Transit", "tessellate": -1, "extrude": 0, "visibility": -1 }, "geometry": { "type": "Point", "coordinates": [ -120.6449917, 35.26973534, 0.0 ] } },
{ "type": "Feature", "properties": { "Name": "Augusta at Laurel", "description": "stop_id: 0130\nagency: City of San Luis Obispo Transit", "tessellate": -1, "extrude": 0, "visibility": -1 }, "geometry": { "type": "Point", "coordinates": [ -120.64016, 35.267097, 0.0 ] } },
{ "type": "Feature", "properties": { "Name": "Broad at Aerovista", "description": "stop_id: 0133\nagency: City of San Luis Obispo Transit", "tessellate": -1, "extrude": 0, "visibility": -1 }, "geometry": { "type": "Point", "coordinates": [ -120.640672, 35.24379875, 0.0 ] } },
{ "type": "Feature", "properties": { "Name": "Broad at Alphonso (The Village)", "description": "stop_id: 0151\nagency: City of San Luis Obispo Transit", "tessellate": -1, "extrude": 0, "visibility": -1 }, "geometry": { "type": "Point", "coordinates": [ -120.65564214, 35.26888625, 0.0 ] } },
{ "type": "Feature", "properties": { "Name": "Broad at Capitolio", "description": "stop_id: 0143\nagency: City of San Luis Obispo Transit", "tessellate": -1, "extrude": 0, "visibility": -1 }, "geometry": { "type": "Point", "coordinates": [ -120.64600892, 35.2546868, 0.0 ] } },
{ "type": "Feature", "properties": { "Name": "Broad at Funston", "description": "stop_id: 0110\nagency: City of San Luis Obispo Transit", "tessellate": -1, "extrude": 0, "visibility": -1 }, "geometry": { "type": "Point", "coordinates": [ -120.65612689, 35.26899735, 0.0 ] } },
{ "type": "Feature", "properties": { "Name": "Broad at Humbert", "description": "stop_id: 0149\nagency: City of San Luis Obispo Transit", "tessellate": -1, "extrude": 0, "visibility": -1 }, "geometry": { "type": "Point", "coordinates": [ -120.652504, 35.264862, 0.0 ] } },
{ "type": "Feature", "properties": { "Name": "Broad at Industrial (Damon-Garcia)", "description": "stop_id: 0120\nagency: City of San Luis Obispo Transit", "tessellate": -1, "extrude": 0, "visibility": -1 }, "geometry": { "type": "Point", "coordinates": [ -120.64576343, 35.25359047, 0.0 ] } },
{ "type": "Feature", "properties": { "Name": "Broad at Industrial (Marigold Center)", "description": "stop_id: 0141\nagency: City of San Luis Obispo Transit", "tessellate": -1, "extrude": 0, "visibility": -1 }, "geometry": { "type": "Point", "coordinates": [ -120.64389, 35.250233, 0.0 ] } },
{ "type": "Feature", "properties": { "Name": "Broad at Islay", "description": "stop_id: 0108\nagency: City of San Luis Obispo Transit", "tessellate": -1, "extrude": 0, "visibility": -1 }, "geometry": { "type": "Point", "coordinates": [ -120.66076845, 35.27464543, 0.0 ] } },
{ "type": "Feature", "properties": { "Name": "Broad at Leff", "description": "stop_id: 0155\nagency: City of San Luis Obispo Transit", "tessellate": -1, "extrude": 0, "visibility": -1 }, "geometry": { "type": "Point", "coordinates": [ -120.66051565, 35.27456714, 0.0 ] } },
{ "type": "Feature", "properties": { "Name": "Broad at Rockview", "description": "stop_id: 0145\nagency: City of San Luis Obispo Transit", "tessellate": -1, "extrude": 0, "visibility": -1 }, "geometry": { "type": "Point", "coordinates": [ -120.64753, 35.257965, 0.0 ] } },
{ "type": "Feature", "properties": { "Name": "Broad at Santa Barbara", "description": "stop_id: 0153\nagency: City of San Luis Obispo Transit", "tessellate": -1, "extrude": 0, "visibility": -1 }, "geometry": { "type": "Point", "coordinates": [ -120.65672454, 35.27022928, 0.0 ] } },
{ "type": "Feature", "properties": { "Name": "Broad at Sweeney (Brickyard)", "description": "stop_id: 0114\nagency: City of San Luis Obispo Transit", "tessellate": -1, "extrude": 0, "visibility": -1 }, "geometry": { "type": "Point", "coordinates": [ -120.651237, 35.26276, 0.0 ] } },
{ "type": "Feature", "properties": { "Name": "Broad at Sweeney (Brickyard)", "description": "stop_id: 0147\nagency: City of San Luis Obispo Transit", "tessellate": -1, "extrude": 0, "visibility": -1 }, "geometry": { "type": "Point", "coordinates": [ -120.650871, 35.26273, 0.0 ] } },
{ "type": "Feature", "properties": { "Name": "Broad at Tank Farm (Creekside)", "description": "stop_id: 0131\nagency: City of San Luis Obispo Transit", "tessellate": -1, "extrude": 0, "visibility": -1 }, "geometry": { "type": "Point", "coordinates": [ -120.64262062, 35.2472543, 0.0 ] } },
{ "type": "Feature", "properties": { "Name": "Broad at Woodbridge", "description": "stop_id: 0112\nagency: City of San Luis Obispo Transit", "tessellate": -1, "extrude": 0, "visibility": -1 }, "geometry": { "type": "Point", "coordinates": [ -120.6545701, 35.26706544, 0.0 ] } },
{ "type": "Feature", "properties": { "Name": "California at Stafford", "description": "stop_id: 0345\nagency: City of San Luis Obispo Transit", "tessellate": -1, "extrude": 0, "visibility": -1 }, "geometry": { "type": "Point", "coordinates": [ -120.66134781, 35.2920755, 0.0 ] } },
{ "type": "Feature", "properties": { "Name": "California at Taft", "description": "stop_id: 0316\nagency: City of San Luis Obispo Transit", "tessellate": -1, "extrude": 0, "visibility": -1 }, "geometry": { "type": "Point", "coordinates": [ -120.66052169, 35.29132896, 0.0 ] } },
{ "type": "Feature", "properties": { "Name": "Dalidio at Froom Ranch", "description": "stop_id: 248\nagency: City of San Luis Obispo Transit", "tessellate": -1, "extrude": 0, "visibility": -1 }, "geometry": { "type": "Point", "coordinates": [ -120.67887489, 35.26021001, 0.0 ] } },
{ "type": "Feature", "properties": { "Name": "Dalidio at Madonna (Promenade)", "description": "stop_id: 0210\nagency: City of San Luis Obispo Transit", "tessellate": -1, "extrude": 0, "visibility": -1 }, "geometry": { "type": "Point", "coordinates": [ -120.67813173, 35.26148732, 0.0 ] } },
{ "type": "Feature", "properties": { "Name": "Del Rio at Descanso", "description": "stop_id: 0222\nagency: City of San Luis Obispo Transit", "tessellate": -1, "extrude": 0, "visibility": -1 }, "geometry": { "type": "Point", "coordinates": [ -120.7019122, 35.26312381, 0.0 ] } },
{ "type": "Feature", "properties": { "Name": "Downtown Transit Center", "description": "stop_id: 1000\nagency: City of San Luis Obispo Transit", "tessellate": -1, "extrude": 0, "visibility": -1 }, "geometry": { "type": "Point", "coordinates": [ -120.66243, 35.282928, 0.0 ] } },
{ "type": "Feature", "properties": { "Name": "Foothill at Casa (Mustang Village)", "description": "stop_id: 0326\nagency: City of San Luis Obispo Transit", "tessellate": -1, "extrude": 0, "visibility": -1 }, "geometry": { "type": "Point", "coordinates": [ -120.66588013, 35.29437591, 0.0 ] } },
{ "type": "Feature", "properties": { "Name": "Foothill at Casa", "description": "stop_id: 0333\nagency: City of San Luis Obispo Transit", "tessellate": -1, "extrude": 0, "visibility": -1 }, "geometry": { "type": "Point", "coordinates": [ -120.666176, 35.294025, 0.0 ] } },
{ "type": "Feature", "properties": { "Name": "Foothill at Chorro (E)", "description": "stop_id: 0331\nagency: City of San Luis Obispo Transit", "tessellate": -1, "extrude": 0, "visibility": -1 }, "geometry": { "type": "Point", "coordinates": [ -120.669899, 35.293938, 0.0 ] } },
{ "type": "Feature", "properties": { "Name": "Foothill at Cuesta (W)", "description": "stop_id: 0332\nagency: City of San Luis Obispo Transit", "tessellate": -1, "extrude": 0, "visibility": -1 }, "geometry": { "type": "Point", "coordinates": [ -120.67701566, 35.2942298, 0.0 ] } },
{ "type": "Feature", "properties": { "Name": "Foothill at Ferrini (W)", "description": "stop_id: 0330\nagency: City of San Luis Obispo Transit", "tessellate": -1, "extrude": 0, "visibility": -1 }, "geometry": { "type": "Point", "coordinates": [ -120.673721, 35.294209, 0.0 ] } },
{ "type": "Feature", "properties": { "Name": "Foothill at La Entrada", "description": "stop_id: 0325\nagency: City of San Luis Obispo Transit", "tessellate": -1, "extrude": 0, "visibility": -1 }, "geometry": { "type": "Point", "coordinates": [ -120.682084, 35.294031, 0.0 ] } },
{ "type": "Feature", "properties": { "Name": "Foothill at Narrow", "description": "stop_id: 0323\nagency: City of San Luis Obispo Transit", "tessellate": -1, "extrude": 0, "visibility": -1 }, "geometry": { "type": "Point", "coordinates": [ -120.70645836, 35.28264955, 0.0 ] } },
{ "type": "Feature", "properties": { "Name": "Foothill at Narrow", "description": "stop_id: 0336\nagency: City of San Luis Obispo Transit", "tessellate": -1, "extrude": 0, "visibility": -1 }, "geometry": { "type": "Point", "coordinates": [ -120.706535, 35.282791, 0.0 ] } },
{ "type": "Feature", "properties": { "Name": "Foothill at Patricia", "description": "stop_id: 0405\nagency: City of San Luis Obispo Transit", "tessellate": -1, "extrude": 0, "visibility": -1 }, "geometry": { "type": "Point", "coordinates": [ -120.68276793, 35.29425927, 0.0 ] } },
{ "type": "Feature", "properties": { "Name": "Foothill at Rosita", "description": "stop_id: 0334\nagency: City of San Luis Obispo Transit", "tessellate": -1, "extrude": 0, "visibility": -1 }, "geometry": { "type": "Point", "coordinates": [ -120.684433, 35.294243, 0.0 ] } },
{ "type": "Feature", "properties": { "Name": "Foothill at University Square (W)", "description": "stop_id: 0328\nagency: City of San Luis Obispo Transit", "tessellate": -1, "extrude": 0, "visibility": -1 }, "geometry": { "type": "Point", "coordinates": [ -120.67018008, 35.29419516, 0.0 ] } },
{ "type": "Feature", "properties": { "Name": "Grand at Abbott", "description": "stop_id: 0314\nagency: City of San Luis Obispo Transit", "tessellate": -1, "extrude": 0, "visibility": -1 }, "geometry": { "type": "Point", "coordinates": [ -120.65304381, 35.29126915, 0.0 ] } },
{ "type": "Feature", "properties": { "Name": "Grand at Fredericks", "description": "stop_id: 0412\nagency: City of San Luis Obispo Transit", "tessellate": -1, "extrude": 0, "visibility": -1 }, "geometry": { "type": "Point", "coordinates": [ -120.65300711, 35.29406947, 0.0 ] } },
{ "type": "Feature", "properties": { "Name": "Grand at Fredricks", "description": "stop_id: 0411\nagency: City of San Luis Obispo Transit", "tessellate": -1, "extrude": 0, "visibility": -1 }, "geometry": { "type": "Point", "coordinates": [ -120.65330659, 35.29339729, 0.0 ] } },
{ "type": "Feature", "properties": { "Name": "Grand at Mill", "description": "stop_id: 0413\nagency: City of San Luis Obispo Transit", "tessellate": -1, "extrude": 0, "visibility": -1 }, "geometry": { "type": "Point", "coordinates": [ -120.65240666, 35.2891703, 0.0 ] } },
{ "type": "Feature", "properties": { "Name": "Grand at Monterey", "description": "stop_id: 0410\nagency: City of San Luis Obispo Transit", "tessellate": -1, "extrude": 0, "visibility": -1 }, "geometry": { "type": "Point", "coordinates": [ -120.65225512, 35.28942426, 0.0 ] } },
{ "type": "Feature", "properties": { "Name": "Grand at Wilson", "description": "stop_id: 0347\nagency: City of San Luis Obispo Transit", "tessellate": -1, "extrude": 0, "visibility": -1 }, "geometry": { "type": "Point", "coordinates": [ -120.65338254, 35.29109708, 0.0 ] } },
{ "type": "Feature", "properties": { "Name": "Highland at Cuesta (E)", "description": "stop_id: 0407\nagency: City of San Luis Obispo Transit", "tessellate": -1, "extrude": 0, "visibility": -1 }, "geometry": { "type": "Point", "coordinates": [ -120.67779377, 35.29816691, 0.0 ] } },
{ "type": "Feature", "properties": { "Name": "Highland at Cuesta (W)", "description": "stop_id: 0420\nagency: City of San Luis Obispo Transit", "tessellate": -1, "extrude": 0, "visibility": -1 }, "geometry": { "type": "Point", "coordinates": [ -120.67775, 35.298302, 0.0 ] } },
{ "type": "Feature", "properties": { "Name": "Highland at Jeffrey", "description": "stop_id: 0422\nagency: City of San Luis Obispo Transit", "tessellate": -1, "extrude": 0, "visibility": -1 }, "geometry": { "type": "Point", "coordinates": [ -120.68070573, 35.29830749, 0.0 ] } },
{ "type": "Feature", "properties": { "Name": "Highland at Mt. Bishop", "description": "stop_id: 0418\nagency: City of San Luis Obispo Transit", "tessellate": -1, "extrude": 0, "visibility": -1 }, "geometry": { "type": "Point", "coordinates": [ -120.66758, 35.302551, 0.0 ] } },
{ "type": "Feature", "properties": { "Name": "Higuera at Bridge", "description": "stop_id: 0207\nagency: City of San Luis Obispo Transit", "tessellate": -1, "extrude": 0, "visibility": -1 }, "geometry": { "type": "Point", "coordinates": [ -120.67057, 35.267204, 0.0 ] } },
{ "type": "Feature", "properties": { "Name": "Higuera at Broad", "description": "stop_id: 0009\nagency: City of San Luis Obispo Transit", "tessellate": -1, "extrude": 0, "visibility": -1 }, "geometry": { "type": "Point", "coordinates": [ -120.66465832, 35.2788956, 0.0 ] } },
{ "type": "Feature", "properties": { "Name": "Higuera at Chumash", "description": "stop_id: 0246\nagency: City of San Luis Obispo Transit", "tessellate": -1, "extrude": 0, "visibility": -1 }, "geometry": { "type": "Point", "coordinates": [ -120.668671, 35.25959, 0.0 ] } },
{ "type": "Feature", "properties": { "Name": "Higuera at Elks", "description": "stop_id: 0248\nagency: City of San Luis Obispo Transit", "tessellate": -1, "extrude": 0, "visibility": -1 }, "geometry": { "type": "Point", "coordinates": [ -120.670326, 35.264839, 0.0 ] } },
{ "type": "Feature", "properties": { "Name": "Higuera at Granada (S)", "description": "stop_id: 0215\nagency: City of San Luis Obispo Transit", "tessellate": -1, "extrude": 0, "visibility": -1 }, "geometry": { "type": "Point", "coordinates": [ -120.67101178, 35.25154205, 0.0 ] } },
{ "type": "Feature", "properties": { "Name": "Higuera at Hind", "description": "stop_id: 0240\nagency: City of San Luis Obispo Transit", "tessellate": -1, "extrude": 0, "visibility": -1 }, "geometry": { "type": "Point", "coordinates": [ -120.67215, 35.249004, 0.0 ] } },
{ "type": "Feature", "properties": { "Name": "Higuera at Margarita (DMV)", "description": "stop_id: 0244\nagency: City of San Luis Obispo Transit", "tessellate": -1, "extrude": 0, "visibility": -1 }, "geometry": { "type": "Point", "coordinates": [ -120.66852272, 35.25648554, 0.0 ] } },
{ "type": "Feature", "properties": { "Name": "Higuera at Prado (Social Services) (N)", "description": "stop_id: 0242\nagency: City of San Luis Obispo Transit", "tessellate": -1, "extrude": 0, "visibility": -1 }, "geometry": { "type": "Point", "coordinates": [ -120.669212, 35.253937, 0.0 ] } },
{ "type": "Feature", "properties": { "Name": "Higuera at Prado (Social Services) (S)", "description": "stop_id: 0213\nagency: City of San Luis Obispo Transit", "tessellate": -1, "extrude": 0, "visibility": -1 }, "geometry": { "type": "Point", "coordinates": [ -120.669472, 35.254128, 0.0 ] } },
{ "type": "Feature", "properties": { "Name": "Higuera at Silver City", "description": "stop_id: 0217\nagency: City of San Luis Obispo Transit", "tessellate": -1, "extrude": 0, "visibility": -1 }, "geometry": { "type": "Point", "coordinates": [ -120.672798, 35.248482, 0.0 ] } },
{ "type": "Feature", "properties": { "Name": "Higuera at South (N)", "description": "stop_id: 0250\nagency: City of San Luis Obispo Transit", "tessellate": -1, "extrude": 0, "visibility": -1 }, "geometry": { "type": "Point", "coordinates": [ -120.670029, 35.270393, 0.0 ] } },
{ "type": "Feature", "properties": { "Name": "Higuera at South (S)", "description": "stop_id: 0206\nagency: City of San Luis Obispo Transit", "tessellate": -1, "extrude": 0, "visibility": -1 }, "geometry": { "type": "Point", "coordinates": [ -120.670141, 35.27111, 0.0 ] } },
{ "type": "Feature", "properties": { "Name": "Higuera at Suburban", "description": "stop_id: 0219\nagency: City of San Luis Obispo Transit", "tessellate": -1, "extrude": 0, "visibility": -1 }, "geometry": { "type": "Point", "coordinates": [ -120.67531675, 35.24430039, 0.0 ] } },
{ "type": "Feature", "properties": { "Name": "Higuera at Suburban", "description": "stop_id: 0238\nagency: City of San Luis Obispo Transit", "tessellate": -1, "extrude": 0, "visibility": -1 }, "geometry": { "type": "Point", "coordinates": [ -120.67498239, 35.24436276, 0.0 ] } },
{ "type": "Feature", "properties": { "Name": "Johnson at Bishop (N)", "description": "stop_id: 0136\nagency: City of San Luis Obispo Transit", "tessellate": -1, "extrude": 0, "visibility": -1 }, "geometry": { "type": "Point", "coordinates": [ -120.64655006, 35.27471057, 0.0 ] } },
{ "type": "Feature", "properties": { "Name": "Johnson at Bishop (S)", "description": "stop_id: 0105\nagency: City of San Luis Obispo Transit", "tessellate": -1, "extrude": 0, "visibility": -1 }, "geometry": { "type": "Point", "coordinates": [ -120.64693093, 35.27479597, 0.0 ] } },
{ "type": "Feature", "properties": { "Name": "Johnson at Gregory", "description": "stop_id: 0122\nagency: City of San Luis Obispo Transit", "tessellate": -1, "extrude": 0, "visibility": -1 }, "geometry": { "type": "Point", "coordinates": [ -120.63566566, 35.26389913, 0.0 ] } },
{ "type": "Feature", "properties": { "Name": "Johnson at La Cita", "description": "stop_id: 0111\nagency: City of San Luis Obispo Transit", "tessellate": -1, "extrude": 0, "visibility": -1 }, "geometry": { "type": "Point", "coordinates": [ -120.642441, 35.269775, 0.0 ] } },
{ "type": "Feature", "properties": { "Name": "Johnson at Lizzie (N)", "description": "stop_id: 0138\nagency: City of San Luis Obispo Transit", "tessellate": -1, "extrude": 0, "visibility": -1 }, "geometry": { "type": "Point", "coordinates": [ -120.65007, 35.278671, 0.0 ] } },
{ "type": "Feature", "properties": { "Name": "Johnson at Lizzie (S)", "description": "stop_id: 0103\nagency: City of San Luis Obispo Transit", "tessellate": -1, "extrude": 0, "visibility": -1 }, "geometry": { "type": "Point", "coordinates": [ -120.65019791, 35.27852308, 0.0 ] } },
{ "type": "Feature", "properties": { "Name": "Johnson at Marsh", "description": "stop_id: 0140\nagency: City of San Luis Obispo Transit", "tessellate": -1, "extrude": 0, "visibility": -1 }, "geometry": { "type": "Point", "coordinates": [ -120.655678, 35.282928, 0.0 ] } },
{ "type": "Feature", "properties": { "Name": "Johnson at Sydney", "description": "stop_id: 0109\nagency: City of San Luis Obispo Transit", "tessellate": -1, "extrude": 0, "visibility": -1 }, "geometry": { "type": "Point", "coordinates": [ -120.64418, 35.271694, 0.0 ] } },
{ "type": "Feature", "properties": { "Name": "Kennedy Library  (Cal Poly)", "description": "stop_id: 0322\nagency: City of San Luis Obispo Transit", "tessellate": -1, "extrude": 0, "visibility": -1 }, "geometry": { "type": "Point", "coordinates": [ -120.66317843, 35.30223304, 0.0 ] } },
{ "type": "Feature", "properties": { "Name": "Kennedy Library (Cal Poly)", "description": "stop_id: 0416\nagency: City of San Luis Obispo Transit", "tessellate": -1, "extrude": 0, "visibility": -1 }, "geometry": { "type": "Point", "coordinates": [ -120.66358477, 35.30235017, 0.0 ] } },
{ "type": "Feature", "properties": { "Name": "Laurel at Augusta", "description": "stop_id: 0113\nagency: City of San Luis Obispo Transit", "tessellate": -1, "extrude": 0, "visibility": -1 }, "geometry": { "type": "Point", "coordinates": [ -120.639877, 35.266479, 0.0 ] } },
{ "type": "Feature", "properties": { "Name": "Laurel at Camden", "description": "stop_id: 0117\nagency: City of San Luis Obispo Transit", "tessellate": -1, "extrude": 0, "visibility": -1 }, "geometry": { "type": "Point", "coordinates": [ -120.642181, 35.26342, 0.0 ] } },
{ "type": "Feature", "properties": { "Name": "Laurel at Richard (Laurel Lane Market)", "description": "stop_id: 0128\nagency: City of San Luis Obispo Transit", "tessellate": -1, "extrude": 0, "visibility": -1 }, "geometry": { "type": "Point", "coordinates": [ -120.63986599, 35.26614606, 0.0 ] } },
{ "type": "Feature", "properties": { "Name": "Laurel at Southwood", "description": "stop_id: 0115\nagency: City of San Luis Obispo Transit", "tessellate": -1, "extrude": 0, "visibility": -1 }, "geometry": { "type": "Point", "coordinates": [ -120.640907, 35.265072, 0.0 ] } },
{ "type": "Feature", "properties": { "Name": "LOVR at Auto Park Way", "description": "stop_id: 0225\nagency: City of San Luis Obispo Transit", "tessellate": -1, "extrude": 0, "visibility": -1 }, "geometry": { "type": "Point", "coordinates": [ -120.68566806, 35.25068957, 0.0 ] } },
{ "type": "Feature", "properties": { "Name": "LOVR at Calle Joaquin", "description": "stop_id: 0223\nagency: City of San Luis Obispo Transit", "tessellate": -1, "extrude": 0, "visibility": -1 }, "geometry": { "type": "Point", "coordinates": [ -120.68306834, 35.24706044, 0.0 ] } },
{ "type": "Feature", "properties": { "Name": "LOVR at Descanso", "description": "stop_id: 0317\nagency: City of San Luis Obispo Transit", "tessellate": -1, "extrude": 0, "visibility": -1 }, "geometry": { "type": "Point", "coordinates": [ -120.700264, 35.265236, 0.0 ] } },
{ "type": "Feature", "properties": { "Name": "LOVR at Descanso", "description": "stop_id: 0342\nagency: City of San Luis Obispo Transit", "tessellate": -1, "extrude": 0, "visibility": -1 }, "geometry": { "type": "Point", "coordinates": [ -120.69995217, 35.26464592, 0.0 ] } },
{ "type": "Feature", "properties": { "Name": "LOVR at Diablo", "description": "stop_id: 0319\nagency: City of San Luis Obispo Transit", "tessellate": -1, "extrude": 0, "visibility": -1 }, "geometry": { "type": "Point", "coordinates": [ -120.70291786, 35.2674859, 0.0 ] } },
{ "type": "Feature", "properties": { "Name": "LOVR at Diablo", "description": "stop_id: 0340\nagency: City of San Luis Obispo Transit", "tessellate": -1, "extrude": 0, "visibility": -1 }, "geometry": { "type": "Point", "coordinates": [ -120.70269674, 35.26692569, 0.0 ] } },
{ "type": "Feature", "properties": { "Name": "LOVR at Froom (Irish Hills)", "description": "stop_id: 0232\nagency: City of San Luis Obispo Transit", "tessellate": -1, "extrude": 0, "visibility": -1 }, "geometry": { "type": "Point", "coordinates": [ -120.687355, 35.251995, 0.0 ] } },
{ "type": "Feature", "properties": { "Name": "LOVR at Higuera (E)", "description": "stop_id: 0234\nagency: City of San Luis Obispo Transit", "tessellate": -1, "extrude": 0, "visibility": -1 }, "geometry": { "type": "Point", "coordinates": [ -120.6800133, 35.24240773, 0.0 ] } },
{ "type": "Feature", "properties": { "Name": "LOVR at Higuera (W)", "description": "stop_id: 0221\nagency: City of San Luis Obispo Transit", "tessellate": -1, "extrude": 0, "visibility": -1 }, "geometry": { "type": "Point", "coordinates": [ -120.67854613, 35.24248768, 0.0 ] } },
{ "type": "Feature", "properties": { "Name": "LOVR at Laguna Lane (Middle School)", "description": "stop_id: 0226\nagency: City of San Luis Obispo Transit", "tessellate": -1, "extrude": 0, "visibility": -1 }, "geometry": { "type": "Point", "coordinates": [ -120.69641232, 35.26161709, 0.0 ] } },
{ "type": "Feature", "properties": { "Name": "LOVR at Laguna Lane (Middle School)", "description": "stop_id: 0218\nagency: City of San Luis Obispo Transit", "tessellate": -1, "extrude": 0, "visibility": -1 }, "geometry": { "type": "Point", "coordinates": [ -120.6969595, 35.26244275, 0.0 ] } },
{ "type": "Feature", "properties": { "Name": "LOVR at Laguna Village (N)", "description": "stop_id: 0214\nagency: City of San Luis Obispo Transit", "tessellate": -1, "extrude": 0, "visibility": -1 }, "geometry": { "type": "Point", "coordinates": [ -120.69175293, 35.25800957, 0.0 ] } },
{ "type": "Feature", "properties": { "Name": "LOVR at Laguna Village (S)", "description": "stop_id: 0229\nagency: City of San Luis Obispo Transit", "tessellate": -1, "extrude": 0, "visibility": -1 }, "geometry": { "type": "Point", "coordinates": [ -120.69179893, 35.25761131, 0.0 ] } },
{ "type": "Feature", "properties": { "Name": "LOVR at Madonna", "description": "stop_id: 0230\nagency: City of San Luis Obispo Transit", "tessellate": -1, "extrude": 0, "visibility": -1 }, "geometry": { "type": "Point", "coordinates": [ -120.690651, 35.256161, 0.0 ] } },
{ "type": "Feature", "properties": { "Name": "LOVR at Oceanaire (N)", "description": "stop_id: 0216\nagency: City of San Luis Obispo Transit", "tessellate": -1, "extrude": 0, "visibility": -1 }, "geometry": { "type": "Point", "coordinates": [ -120.69376399, 35.25976187, 0.0 ] } },
{ "type": "Feature", "properties": { "Name": "LOVR at Oceanaire (S)", "description": "stop_id: 0228\nagency: City of San Luis Obispo Transit", "tessellate": -1, "extrude": 0, "visibility": -1 }, "geometry": { "type": "Point", "coordinates": [ -120.69443084, 35.2599944, 0.0 ] } },
{ "type": "Feature", "properties": { "Name": "LOVR at Valle Vista (E)", "description": "stop_id: 0321\nagency: City of San Luis Obispo Transit", "tessellate": -1, "extrude": 0, "visibility": -1 }, "geometry": { "type": "Point", "coordinates": [ -120.70887521, 35.27392993, 0.0 ] } },
{ "type": "Feature", "properties": { "Name": "LOVR at Valle Vista (W)", "description": "stop_id: 0338\nagency: City of San Luis Obispo Transit", "tessellate": -1, "extrude": 0, "visibility": -1 }, "geometry": { "type": "Point", "coordinates": [ -120.70909948, 35.27377965, 0.0 ] } },
{ "type": "Feature", "properties": { "Name": "Madonna at Oceanaire (E)", "description": "stop_id: 0247\nagency: City of San Luis Obispo Transit", "tessellate": -1, "extrude": 0, "visibility": -1 }, "geometry": { "type": "Point", "coordinates": [ -120.683975, 35.259323, 0.0 ] } },
{ "type": "Feature", "properties": { "Name": "Madonna at Oceanaire (W)", "description": "stop_id: 0212\nagency: City of San Luis Obispo Transit", "tessellate": -1, "extrude": 0, "visibility": -1 }, "geometry": { "type": "Point", "coordinates": [ -120.68410367, 35.25951786, 0.0 ] } },
{ "type": "Feature", "properties": { "Name": "Madonna Rd at Madonna Plaza (W)", "description": "stop_id: 0208\nagency: City of San Luis Obispo Transit", "tessellate": -1, "extrude": 0, "visibility": -1 }, "geometry": { "type": "Point", "coordinates": [ -120.676277, 35.264294, 0.0 ] } },
{ "type": "Feature", "properties": { "Name": "Madonna Rd at Madonna Plaza", "description": "stop_id: 0251\nagency: City of San Luis Obispo Transit", "tessellate": -1, "extrude": 0, "visibility": -1 }, "geometry": { "type": "Point", "coordinates": [ -120.676392, 35.263824, 0.0 ] } },
{ "type": "Feature", "properties": { "Name": "Madonna Road at Dalidio", "description": "stop_id: 254\nagency: City of San Luis Obispo Transit", "tessellate": -1, "extrude": 0, "visibility": -1 }, "geometry": { "type": "Point", "coordinates": [ -120.68079535, 35.26106415, 0.0 ] } },
{ "type": "Feature", "properties": { "Name": "Margarita (DMV)", "description": "stop_id: 20467988\nagency: City of San Luis Obispo Transit", "tessellate": -1, "extrude": 0, "visibility": -1 }, "geometry": { "type": "Point", "coordinates": [ -120.66886067, 35.25644831, 0.0 ] } },
{ "type": "Feature", "properties": { "Name": "Marsh at Archer", "description": "stop_id: 0252\nagency: City of San Luis Obispo Transit", "tessellate": -1, "extrude": 0, "visibility": -1 }, "geometry": { "type": "Point", "coordinates": [ -120.668739, 35.274982, 0.0 ] } },
{ "type": "Feature", "properties": { "Name": "Marsh at Broad", "description": "stop_id: 0106\nagency: City of San Luis Obispo Transit", "tessellate": -1, "extrude": 0, "visibility": -1 }, "geometry": { "type": "Point", "coordinates": [ -120.66430187, 35.27769655, 0.0 ] } },
{ "type": "Feature", "properties": { "Name": "Marsh at Chorro", "description": "stop_id: 0157\nagency: City of San Luis Obispo Transit", "tessellate": -1, "extrude": 0, "visibility": -1 }, "geometry": { "type": "Point", "coordinates": [ -120.66193253, 35.27912496, 0.0 ] } },
{ "type": "Feature", "properties": { "Name": "Marsh at Johnson", "description": "stop_id: 0101\nagency: City of San Luis Obispo Transit", "tessellate": -1, "extrude": 0, "visibility": -1 }, "geometry": { "type": "Point", "coordinates": [ -120.6566754, 35.28232393, 0.0 ] } },
{ "type": "Feature", "properties": { "Name": "Marsh at Osos", "description": "stop_id: 0159\nagency: City of San Luis Obispo Transit", "tessellate": -1, "extrude": 0, "visibility": -1 }, "geometry": { "type": "Point", "coordinates": [ -120.659836, 35.280399, 0.0 ] } },
{ "type": "Feature", "properties": { "Name": "Mill at Grand", "description": "stop_id: 0312\nagency: City of San Luis Obispo Transit", "tessellate": -1, "extrude": 0, "visibility": -1 }, "geometry": { "type": "Point", "coordinates": [ -120.652733, 35.289349, 0.0 ] } },
{ "type": "Feature", "properties": { "Name": "Mill at Johnson (E)", "description": "stop_id: 0306\nagency: City of San Luis Obispo Transit", "tessellate": -1, "extrude": 0, "visibility": -1 }, "geometry": { "type": "Point", "coordinates": [ -120.6587915, 35.28574916, 0.0 ] } },
{ "type": "Feature", "properties": { "Name": "Mill at Johnson (W)", "description": "stop_id: 0355\nagency: City of San Luis Obispo Transit", "tessellate": -1, "extrude": 0, "visibility": -1 }, "geometry": { "type": "Point", "coordinates": [ -120.65895393, 35.28587198, 0.0 ] } },
{ "type": "Feature", "properties": { "Name": "Mill at Park", "description": "stop_id: 0349\nagency: City of San Luis Obispo Transit", "tessellate": -1, "extrude": 0, "visibility": -1 }, "geometry": { "type": "Point", "coordinates": [ -120.65314654, 35.2892903, 0.0 ] } },
{ "type": "Feature", "properties": { "Name": "Mill at Pepper (W)", "description": "stop_id: 0351\nagency: City of San Luis Obispo Transit", "tessellate": -1, "extrude": 0, "visibility": -1 }, "geometry": { "type": "Point", "coordinates": [ -120.657201, 35.286898, 0.0 ] } },
{ "type": "Feature", "properties": { "Name": "Mill at Pepper", "description": "stop_id: 0310\nagency: City of San Luis Obispo Transit", "tessellate": -1, "extrude": 0, "visibility": -1 }, "geometry": { "type": "Point", "coordinates": [ -120.65703616, 35.28676198, 0.0 ] } },
{ "type": "Feature", "properties": { "Name": "Mill at Santa Rosa (E)", "description": "stop_id: 0304\nagency: City of San Luis Obispo Transit", "tessellate": -1, "extrude": 0, "visibility": -1 }, "geometry": { "type": "Point", "coordinates": [ -120.66080118, 35.28456178, 0.0 ] } },
{ "type": "Feature", "properties": { "Name": "Monterey at California", "description": "stop_id: 0406\nagency: City of San Luis Obispo Transit", "tessellate": -1, "extrude": 0, "visibility": -1 }, "geometry": { "type": "Point", "coordinates": [ -120.65495007, 35.28576798, 0.0 ] } },
{ "type": "Feature", "properties": { "Name": "Monterey at California", "description": "stop_id: 0417\nagency: City of San Luis Obispo Transit", "tessellate": -1, "extrude": 0, "visibility": -1 }, "geometry": { "type": "Point", "coordinates": [ -120.65488502, 35.2859913, 0.0 ] } },
{ "type": "Feature", "properties": { "Name": "Monterey at Grand", "description": "stop_id: 0011\nagency: City of San Luis Obispo Transit", "tessellate": -1, "extrude": 0, "visibility": -1 }, "geometry": { "type": "Point", "coordinates": [ -120.65143973, 35.28871053, 0.0 ] } },
{ "type": "Feature", "properties": { "Name": "Monterey at Grove", "description": "stop_id: 0408\nagency: City of San Luis Obispo Transit", "tessellate": -1, "extrude": 0, "visibility": -1 }, "geometry": { "type": "Point", "coordinates": [ -120.65315366, 35.28713746, 0.0 ] } },
{ "type": "Feature", "properties": { "Name": "Monterey at Grove", "description": "stop_id: 0415\nagency: City of San Luis Obispo Transit", "tessellate": -1, "extrude": 0, "visibility": -1 }, "geometry": { "type": "Point", "coordinates": [ -120.65318316, 35.28732794, 0.0 ] } },
{ "type": "Feature", "properties": { "Name": "Monterey at La Cuesta Inn", "description": "stop_id: 0001\nagency: City of San Luis Obispo Transit", "tessellate": -1, "extrude": 0, "visibility": -1 }, "geometry": { "type": "Point", "coordinates": [ -120.64957023, 35.2905846, 0.0 ] } },
{ "type": "Feature", "properties": { "Name": "Monterey at Osos", "description": "stop_id: 0003\nagency: City of San Luis Obispo Transit", "tessellate": -1, "extrude": 0, "visibility": -1 }, "geometry": { "type": "Point", "coordinates": [ -120.66155586, 35.28178045, 0.0 ] } },
{ "type": "Feature", "properties": { "Name": "Monterey at The Peach Tree Inn", "description": "stop_id: 0012\nagency: City of San Luis Obispo Transit", "tessellate": -1, "extrude": 0, "visibility": -1 }, "geometry": { "type": "Point", "coordinates": [ -120.64994842, 35.29002851, 0.0 ] } },
{ "type": "Feature", "properties": { "Name": "Monterey at Toro", "description": "stop_id: 0142\nagency: City of San Luis Obispo Transit", "tessellate": -1, "extrude": 0, "visibility": -1 }, "geometry": { "type": "Point", "coordinates": [ -120.65846577, 35.28359165, 0.0 ] } },
{ "type": "Feature", "properties": { "Name": "Monterey at Toro", "description": "stop_id: 0404\nagency: City of San Luis Obispo Transit", "tessellate": -1, "extrude": 0, "visibility": -1 }, "geometry": { "type": "Point", "coordinates": [ -120.65862597, 35.2832681, 0.0 ] } },
{ "type": "Feature", "properties": { "Name": "Orcutt at Laurel", "description": "stop_id: 0118\nagency: City of San Luis Obispo Transit", "tessellate": -1, "extrude": 0, "visibility": -1 }, "geometry": { "type": "Point", "coordinates": [ -120.64316747, 35.26125996, 0.0 ] } },
{ "type": "Feature", "properties": { "Name": "Orcutt at Lawnwood", "description": "stop_id: 0119\nagency: City of San Luis Obispo Transit", "tessellate": -1, "extrude": 0, "visibility": -1 }, "geometry": { "type": "Point", "coordinates": [ -120.63776478, 35.26133225, 0.0 ] } },
{ "type": "Feature", "properties": { "Name": "Orcutt at Tiburon", "description": "stop_id: 0121\nagency: City of San Luis Obispo Transit", "tessellate": -1, "extrude": 0, "visibility": -1 }, "geometry": { "type": "Point", "coordinates": [ -120.63319399, 35.25877675, 0.0 ] } },
{ "type": "Feature", "properties": { "Name": "Patricia at Foothill", "description": "stop_id: 0426\nagency: City of San Luis Obispo Transit", "tessellate": -1, "extrude": 0, "visibility": -1 }, "geometry": { "type": "Point", "coordinates": [ -120.68356991, 35.29443112, 0.0 ] } },
{ "type": "Feature", "properties": { "Name": "Patricia at Highland", "description": "stop_id: 0424\nagency: City of San Luis Obispo Transit", "tessellate": -1, "extrude": 0, "visibility": -1 }, "geometry": { "type": "Point", "coordinates": [ -120.683563, 35.297909, 0.0 ] } },
{ "type": "Feature", "properties": { "Name": "Performing Arts Center (Cal Poly)", "description": "stop_id: 0414\nagency: City of San Luis Obispo Transit", "tessellate": -1, "extrude": 0, "visibility": -1 }, "geometry": { "type": "Point", "coordinates": [ -120.65748543, 35.30041508, 0.0 ] } },
{ "type": "Feature", "properties": { "Name": "Performing Arts Center (Cal Poly) (S)", "description": "stop_id: 0409\nagency: City of San Luis Obispo Transit", "tessellate": -1, "extrude": 0, "visibility": -1 }, "geometry": { "type": "Point", "coordinates": [ -120.65776035, 35.30025966, 0.0 ] } },
{ "type": "Feature", "properties": { "Name": "Pismo at Archer", "description": "stop_id: 0205\nagency: City of San Luis Obispo Transit", "tessellate": -1, "extrude": 0, "visibility": -1 }, "geometry": { "type": "Point", "coordinates": [ -120.66787166, 35.27339123, 0.0 ] } },
{ "type": "Feature", "properties": { "Name": "Pismo at Nipomo", "description": "stop_id: 26354960\nagency: City of San Luis Obispo Transit", "tessellate": -1, "extrude": 0, "visibility": -1 }, "geometry": { "type": "Point", "coordinates": [ -120.66357471, 35.27600743, 0.0 ] } },
{ "type": "Feature", "properties": { "Name": "Prado at Elks", "description": "stop_id: 20467992\nagency: City of San Luis Obispo Transit", "tessellate": -1, "extrude": 0, "visibility": -1 }, "geometry": { "type": "Point", "coordinates": [ -120.67280857, 35.25626638, 0.0 ] } },
{ "type": "Feature", "properties": { "Name": "Prefumo Canyon at Del Rio", "description": "stop_id: 0220\nagency: City of San Luis Obispo Transit", "tessellate": -1, "extrude": 0, "visibility": -1 }, "geometry": { "type": "Point", "coordinates": [ -120.700691, 35.261795, 0.0 ] } },
{ "type": "Feature", "properties": { "Name": "Ramona at Palomar", "description": "stop_id: 0329\nagency: City of San Luis Obispo Transit", "tessellate": -1, "extrude": 0, "visibility": -1 }, "geometry": { "type": "Point", "coordinates": [ -120.67401279, 35.29271118, 0.0 ] } },
{ "type": "Feature", "properties": { "Name": "Ramona at S. Tassajara", "description": "stop_id: 0327\nagency: City of San Luis Obispo Transit", "tessellate": -1, "extrude": 0, "visibility": -1 }, "geometry": { "type": "Point", "coordinates": [ -120.677472, 35.292844, 0.0 ] } },
{ "type": "Feature", "properties": { "Name": "Ranch House at Cerro Cabrillo", "description": "stop_id: 0154\nagency: City of San Luis Obispo Transit", "tessellate": -1, "extrude": 0, "visibility": -1 }, "geometry": { "type": "Point", "coordinates": [ -120.63750854, 35.25839429, 0.0 ] } },
{ "type": "Feature", "properties": { "Name": "Righetti at Tank Farm", "description": "stop_id: 0125\nagency: City of San Luis Obispo Transit", "tessellate": -1, "extrude": 0, "visibility": -1 }, "geometry": { "type": "Point", "coordinates": [ -120.63373762, 35.25063047, 0.0 ] } },
{ "type": "Feature", "properties": { "Name": "Righetti at Tank Farm", "description": "stop_id: 0150\nagency: City of San Luis Obispo Transit", "tessellate": -1, "extrude": 0, "visibility": -1 }, "geometry": { "type": "Point", "coordinates": [ -120.63388973, 35.25093604, 0.0 ] } },
{ "type": "Feature", "properties": { "Name": "San Luis Airport (Airport at Broad)", "description": "stop_id: 0135\nagency: City of San Luis Obispo Transit", "tessellate": -1, "extrude": 0, "visibility": -1 }, "geometry": { "type": "Point", "coordinates": [ -120.6375365, 35.23933972, 0.0 ] } },
{ "type": "Feature", "properties": { "Name": "Santa Barbara at Church (N)", "description": "stop_id: 0354\nagency: City of San Luis Obispo Transit", "tessellate": -1, "extrude": 0, "visibility": -1 }, "geometry": { "type": "Point", "coordinates": [ -120.656342, 35.275742, 0.0 ] } },
{ "type": "Feature", "properties": { "Name": "Santa Barbara at Church (SB) serving Amtrak", "description": "stop_id: 0307\nagency: City of San Luis Obispo Transit", "tessellate": -1, "extrude": 0, "visibility": -1 }, "geometry": { "type": "Point", "coordinates": [ -120.6563804, 35.27528209, 0.0 ] } },
{ "type": "Feature", "properties": { "Name": "Santa Barbara at High (N)", "description": "stop_id: 0352\nagency: City of San Luis Obispo Transit", "tessellate": -1, "extrude": 0, "visibility": -1 }, "geometry": { "type": "Point", "coordinates": [ -120.65607458, 35.27242665, 0.0 ] } },
{ "type": "Feature", "properties": { "Name": "Santa Barbara at High (S)", "description": "stop_id: 0309\nagency: City of San Luis Obispo Transit", "tessellate": -1, "extrude": 0, "visibility": -1 }, "geometry": { "type": "Point", "coordinates": [ -120.65627087, 35.27257557, 0.0 ] } },
{ "type": "Feature", "properties": { "Name": "Santa Rosa at Buchon (N)", "description": "stop_id: 0360\nagency: City of San Luis Obispo Transit", "tessellate": -1, "extrude": 0, "visibility": -1 }, "geometry": { "type": "Point", "coordinates": [ -120.656525, 35.278828, 0.0 ] } },
{ "type": "Feature", "properties": { "Name": "Santa Rosa at Foothill", "description": "stop_id: 0428\nagency: City of San Luis Obispo Transit", "tessellate": -1, "extrude": 0, "visibility": -1 }, "geometry": { "type": "Point", "coordinates": [ -120.66776225, 35.29310768, 0.0 ] } },
{ "type": "Feature", "properties": { "Name": "Santa Rosa at Higuera", "description": "stop_id: 0161\nagency: City of San Luis Obispo Transit", "tessellate": -1, "extrude": 0, "visibility": -1 }, "geometry": { "type": "Point", "coordinates": [ -120.659172, 35.281815, 0.0 ] } },
{ "type": "Feature", "properties": { "Name": "Santa Rosa at Leff", "description": "stop_id: 0358\nagency: City of San Luis Obispo Transit", "tessellate": -1, "extrude": 0, "visibility": -1 }, "geometry": { "type": "Point", "coordinates": [ -120.655357, 35.277512, 0.0 ] } },
{ "type": "Feature", "properties": { "Name": "Santa Rosa at Marsh", "description": "stop_id: 0303\nagency: City of San Luis Obispo Transit", "tessellate": -1, "extrude": 0, "visibility": -1 }, "geometry": { "type": "Point", "coordinates": [ -120.65860391, 35.28091823, 0.0 ] } },
{ "type": "Feature", "properties": { "Name": "Santa Rosa at Murray (N)", "description": "stop_id: 0403\nagency: City of San Luis Obispo Transit", "tessellate": -1, "extrude": 0, "visibility": -1 }, "geometry": { "type": "Point", "coordinates": [ -120.66700593, 35.29154953, 0.0 ] } },
{ "type": "Feature", "properties": { "Name": "Santa Rosa at Murray (Santa Rosa Park)", "description": "stop_id: 0430\nagency: City of San Luis Obispo Transit", "tessellate": -1, "extrude": 0, "visibility": -1 }, "geometry": { "type": "Point", "coordinates": [ -120.666656, 35.290016, 0.0 ] } },
{ "type": "Feature", "properties": { "Name": "Santa Rosa at Oak (Santa Rosa Park)", "description": "stop_id: 0401\nagency: City of San Luis Obispo Transit", "tessellate": -1, "extrude": 0, "visibility": -1 }, "geometry": { "type": "Point", "coordinates": [ -120.66581637, 35.28945272, 0.0 ] } },
{ "type": "Feature", "properties": { "Name": "Santa Rosa at Pismo", "description": "stop_id: 0305\nagency: City of San Luis Obispo Transit", "tessellate": -1, "extrude": 0, "visibility": -1 }, "geometry": { "type": "Point", "coordinates": [ -120.65753907, 35.27971615, 0.0 ] } },
{ "type": "Feature", "properties": { "Name": "South at King (E)", "description": "stop_id: 0348\nagency: City of San Luis Obispo Transit", "tessellate": -1, "extrude": 0, "visibility": -1 }, "geometry": { "type": "Point", "coordinates": [ -120.66199958, 35.26942219, 0.0 ] } },
{ "type": "Feature", "properties": { "Name": "South at King (W)", "description": "stop_id: 0313\nagency: City of San Luis Obispo Transit", "tessellate": -1, "extrude": 0, "visibility": -1 }, "geometry": { "type": "Point", "coordinates": [ -120.66150069, 35.26961271, 0.0 ] } },
{ "type": "Feature", "properties": { "Name": "South at Meadow Park", "description": "stop_id: 0350\nagency: City of San Luis Obispo Transit", "tessellate": -1, "extrude": 0, "visibility": -1 }, "geometry": { "type": "Point", "coordinates": [ -120.6590223, 35.26942, 0.0 ] } },
{ "type": "Feature", "properties": { "Name": "South at Meadow Park", "description": "stop_id: 0311\nagency: City of San Luis Obispo Transit", "tessellate": -1, "extrude": 0, "visibility": -1 }, "geometry": { "type": "Point", "coordinates": [ -120.65904, 35.269599, 0.0 ] } },
{ "type": "Feature", "properties": { "Name": "South at Parker (E)", "description": "stop_id: 0344\nagency: City of San Luis Obispo Transit", "tessellate": -1, "extrude": 0, "visibility": -1 }, "geometry": { "type": "Point", "coordinates": [ -120.66872522, 35.26940795, 0.0 ] } },
{ "type": "Feature", "properties": { "Name": "South at Parker (W)", "description": "stop_id: 0315\nagency: City of San Luis Obispo Transit", "tessellate": -1, "extrude": 0, "visibility": -1 }, "geometry": { "type": "Point", "coordinates": [ -120.6691584, 35.26961709, 0.0 ] } },
{ "type": "Feature", "properties": { "Name": "Southwood at Laurel", "description": "stop_id: 0126\nagency: City of San Luis Obispo Transit", "tessellate": -1, "extrude": 0, "visibility": -1 }, "geometry": { "type": "Point", "coordinates": [ -120.64020932, 35.26513429, 0.0 ] } },
{ "type": "Feature", "properties": { "Name": "Southwood at Woodside", "description": "stop_id: 0124\nagency: City of San Luis Obispo Transit", "tessellate": -1, "extrude": 0, "visibility": -1 }, "geometry": { "type": "Point", "coordinates": [ -120.638611, 35.26495, 0.0 ] } },
{ "type": "Feature", "properties": { "Name": "Tank Farm at Hollyhock", "description": "stop_id: 0137\nagency: City of San Luis Obispo Transit", "tessellate": -1, "extrude": 0, "visibility": -1 }, "geometry": { "type": "Point", "coordinates": [ -120.637222, 35.24979, 0.0 ] } },
{ "type": "Feature", "properties": { "Name": "Tank Farm at Poinsettia", "description": "stop_id: 0139\nagency: City of San Luis Obispo Transit", "tessellate": -1, "extrude": 0, "visibility": -1 }, "geometry": { "type": "Point", "coordinates": [ -120.640855, 35.2493, 0.0 ] } },
{ "type": "Feature", "properties": { "Name": "Tank Farm at Poinsettia", "description": "stop_id: 0148\nagency: City of San Luis Obispo Transit", "tessellate": -1, "extrude": 0, "visibility": -1 }, "geometry": { "type": "Point", "coordinates": [ -120.64023556, 35.24936425, 0.0 ] } },
{ "type": "Feature", "properties": { "Name": "Tiburon at Hayfield", "description": "stop_id: 0152\nagency: City of San Luis Obispo Transit", "tessellate": -1, "extrude": 0, "visibility": -1 }, "geometry": { "type": "Point", "coordinates": [ -120.63790973, 35.25596326, 0.0 ] } },
{ "type": "Feature", "properties": { "Name": "Tiburon at Righetti", "description": "stop_id: 0123\nagency: City of San Luis Obispo Transit", "tessellate": -1, "extrude": 0, "visibility": -1 }, "geometry": { "type": "Point", "coordinates": [ -120.6382757, 35.25599587, 0.0 ] } },
{ "type": "Feature", "properties": { "Name": "Wayfarer Inn", "description": "stop_id: 0002\nagency: City of San Luis Obispo Transit", "tessellate": -1, "extrude": 0, "visibility": -1 }, "geometry": { "type": "Point", "coordinates": [ -120.65086037, 35.28953263, 0.0 ] } }
]
}
