<kml><Document>

  <Style id="bus-weekday-only">
    <IconStyle>
      <color>ff7e231a</color>
      <scale>0.4</scale>
      <Icon>
        <href>/assets/pin.png</href>
      </Icon>
    </IconStyle>
  </Style>

  <Placemark>
    <name>Alhambra Hills Open Space</name>
    <description>
<![CDATA[
<h4>Stop: Alhambra Ave and Wildcroft Dr</h4>
Narrow shoulder and heavy traffic on Alhambra Ave, USE CAUTION.
<br>
<b>3 min walk</b><br>
Served by CC 16
<ul><li>Weekday: Every 30–45 minutes</li><li>Weekend: No service</li></ul>
]]>
    </description>
    <styleUrl>#bus-weekday-only</styleUrl>
    <Point>
      <coordinates>-122.1070947,37.9717146,0</coordinates>
    </Point>
  </Placemark>

  <Placemark>
    <name>Almaden Quicksilver County Park: Mockingbird Hill</name>
    <description>
<![CDATA[
<h4>Stop: McKean &amp; Almaden</h4>
<b>8 min walk</b><br>
Served by VTA 83
<ul><li>Weekday: Every 1–2 hours</li><li>Weekend: No service</li></ul>
]]>
    </description>
    <styleUrl>#bus-weekday-only</styleUrl>
    <Point>
      <coordinates>-121.8374783,37.1937671,0</coordinates>
    </Point>
  </Placemark>

  <Placemark>
    <name>Anthony Chabot Regional Park: Clyde Woolridge Staging</name>
    <description>
<![CDATA[
<h4>Stop: Golf Links Rd &amp; Grass Valley Sch.(Near Dunkirk Av)</h4>
<b>10 min walk</b><br>
Served by AC Transit 46L
<ul><li>Weekday: Every 30–45 minutes</li><li>Weekend: No service</li></ul>
]]>
    </description>
    <styleUrl>#bus-weekday-only</styleUrl>
    <Point>
      <coordinates>-122.1182058,37.753804,0</coordinates>
    </Point>
  </Placemark>

  <Placemark>
    <name>Bishop Peak Natural Reserve: Foothill Trailhead</name>
    <description>
<![CDATA[
<h4>Stop: Foothill at Rosita</h4>
<b>7 min walk</b><br>
Served by 10866849, 11096761
<ul><li>Weekday: About hourly</li><li>Weekend: No service</li></ul>
]]>
    </description>
    <styleUrl>#bus-weekday-only</styleUrl>
    <Point>
      <coordinates>-120.6894770464665,35.29179897620193,0</coordinates>
    </Point>
  </Placemark>

  <Placemark>
    <name>Bishop Peak Natural Reserve: Highland Dr</name>
    <description>
<![CDATA[
<h4>Stop: Patricia at Highland</h4>
<b>18 min walk</b><br>
Served by 10867637
<ul><li>Weekday: About hourly</li><li>Weekend: No service</li></ul>
]]>
    </description>
    <styleUrl>#bus-weekday-only</styleUrl>
    <Point>
      <coordinates>-120.68928222962094,35.30122264557173,0</coordinates>
    </Point>
  </Placemark>

  <Placemark>
    <name>Bishop Peak Natural Reserve: Patricia Trailhead</name>
    <description>
<![CDATA[
<h4>Stop: Patricia at Highland</h4>
<b>11 min walk</b><br>
Served by 10867637
<ul><li>Weekday: About hourly</li><li>Weekend: No service</li></ul>
]]>
    </description>
    <styleUrl>#bus-weekday-only</styleUrl>
    <Point>
      <coordinates>-120.6854540939596,35.30440060817472,0</coordinates>
    </Point>
  </Placemark>

  <Placemark>
    <name>Bizz Johnson National Recreation Trail: Susanville Trailhead</name>
    <description>
<![CDATA[
<h4>Stop: Susanville Riverside Drive (Walmart)</h4>
Intercity service from Reno
<br>
<b>37 min walk</b><br>
Served by Sage Stage Reno
<ul><li>Weekday: 1 trip a day</li><li>Weekend: No service</li></ul>
]]>
    </description>
    <styleUrl>#bus-weekday-only</styleUrl>
    <Point>
      <coordinates>-120.66108053727437,40.41166276489657,0</coordinates>
    </Point>
  </Placemark>

  <Placemark>
    <name>Boggs Mountain Demonstration State Forest</name>
    <description>
<![CDATA[
<h4>Stop: Summit</h4>
<b>7 min walk</b><br>
Served by Lake Transit 2
<ul><li>Weekday: 4 trips a day</li><li>Weekend: No service</li></ul>
]]>
    </description>
    <styleUrl>#bus-weekday-only</styleUrl>
    <Point>
      <coordinates>-122.7207473,38.8371053,0</coordinates>
    </Point>
  </Placemark>

  <Placemark>
    <name>Briones Regional Park: Hayfield Trail</name>
    <description>
<![CDATA[
<h4>Stop: Alhambra Ave and Rockridge Dr</h4>
<b>30 min walk</b><br>
Served by CC 16
<ul><li>Weekday: About hourly</li><li>Weekend: No service</li></ul>
]]>
    </description>
    <styleUrl>#bus-weekday-only</styleUrl>
    <Point>
      <coordinates>-122.1174724,37.9647572,0</coordinates>
    </Point>
  </Placemark>

  <Placemark>
    <name>Briones Regional Park: Hidden Pond Trail</name>
    <description>
<![CDATA[
<h4>Stop: Pleasant Hill Rd and Devon Ave</h4>
<b>30 min walk</b><br>
Served by CC 16
<ul><li>Weekday: About hourly</li><li>Weekend: No service</li></ul>
]]>
    </description>
    <styleUrl>#bus-weekday-only</styleUrl>
    <Point>
      <coordinates>-122.1093052,37.9532621,0</coordinates>
    </Point>
  </Placemark>

  <Placemark>
    <name>Calero Creek Trail: Camden &amp; Harry</name>
    <description>
<![CDATA[
Provides walking/biking access to Santa Teresa
<br>
<h4>Stop: Camden &amp; Harry</h4>
<b>0 min walk</b><br>
Served by VTA 83
<ul><li>Weekday: Every 1–2 hours</li><li>Weekend: No service</li></ul>
]]>
    </description>
    <styleUrl>#bus-weekday-only</styleUrl>
    <Point>
      <coordinates>-121.8243319,37.2070411,0</coordinates>
    </Point>
  </Placemark>

  <Placemark>
    <name>Caligiuri Park and Preserve / Glen Eagle Open Space</name>
    <description>
<![CDATA[
<h4>Stop: Glen Eagle Way at Wrentham Dr.</h4>
<b>5 min walk</b><br>
Served by City Coach 2
<ul><li>Weekday: 9 trips a day</li><li>Weekend: No service</li></ul>
]]>
    </description>
    <styleUrl>#bus-weekday-only</styleUrl>
    <Point>
      <coordinates>-121.9839264,38.3895745,0</coordinates>
    </Point>
  </Placemark>

  <Placemark>
    <name>Castle Crags State Park / Pacific Crest Trail: Soda Creek East Trailhead</name>
    <description>
<![CDATA[
<h4>Stop: Soda Creek</h4>
<b>9 min walk</b><br>
Served by Siskiyou STAGE 2, Siskiyou STAGE 3
<ul><li>Weekday: 2 trips a day</li><li>Weekend: No service</li></ul>
]]>
    </description>
    <styleUrl>#bus-weekday-only</styleUrl>
    <Point>
      <coordinates>-122.29199054312338,41.16017104637959,0</coordinates>
    </Point>
  </Placemark>

  <Placemark>
    <name>Castle Crags State Park / Pacific Crest Trail: Soda Creek Trailhead</name>
    <description>
<![CDATA[
<h4>Stop: Soda Creek</h4>
<b>0 min walk</b><br>
Served by Siskiyou STAGE 2, Siskiyou STAGE 3
<ul><li>Weekday: 2 trips a day</li><li>Weekend: No service</li></ul>
]]>
    </description>
    <styleUrl>#bus-weekday-only</styleUrl>
    <Point>
      <coordinates>-122.29854059994891,41.162359372589535,0</coordinates>
    </Point>
  </Placemark>

  <Placemark>
    <name>Castle Crags State Park: Main Entrance</name>
    <description>
<![CDATA[
<h4>Stop: Castella Post office</h4>
<b>7 min walk</b><br>
Served by Siskiyou STAGE 2, Siskiyou STAGE 3
<ul><li>Weekday: 2 trips a day</li><li>Weekend: No service</li></ul>
]]>
    </description>
    <styleUrl>#bus-weekday-only</styleUrl>
    <Point>
      <coordinates>-122.32154857501244,41.14816855191384,0</coordinates>
    </Point>
  </Placemark>

  <Placemark>
    <name>Castle Rock State Park: Saratoga Toll Road Trail</name>
    <description>
<![CDATA[
<h4>Stop: Hwy 9 &amp; Sylvan Ave</h4>
<b>19 min walk</b><br>
Served by Santa Cruz METRO 35
<ul><li>Weekday: 8 trips a day</li><li>Weekend: No service</li></ul>
]]>
    </description>
    <styleUrl>#bus-weekday-only</styleUrl>
    <Point>
      <coordinates>-122.1450198080611,37.207139260065546,0</coordinates>
    </Point>
  </Placemark>

  <Placemark>
    <name>Cerro San Luis Natural Reserve: Carriage Rd</name>
    <description>
<![CDATA[
<h4>Stop: Santa Rosa at Murray (Santa Rosa Park)</h4>
<b>20 min walk</b><br>
Served by 10867637, 11096761
<ul><li>Weekday: About hourly</li><li>Weekend: No service</li></ul>
]]>
    </description>
    <styleUrl>#bus-weekday-only</styleUrl>
    <Point>
      <coordinates>-120.66989948648659,35.28205135283434,0</coordinates>
    </Point>
  </Placemark>

  <Placemark>
    <name>Clear Lake State Park</name>
    <description>
<![CDATA[
<h4>Stop: Soda Bay</h4>
<b>24 min walk</b><br>
Served by Lake Transit 4a
<ul><li>Weekday: 4 trips a day</li><li>Weekend: No service</li></ul>
]]>
    </description>
    <styleUrl>#bus-weekday-only</styleUrl>
    <Point>
      <coordinates>-122.8139383,39.0106312,0</coordinates>
    </Point>
  </Placemark>

  <Placemark>
    <name>College Heights Rademacher Trailheads</name>
    <description>
<![CDATA[
<h4>Stop: Cerro Coso Community College (2740476)</h4>
<b>6 min walk</b><br>
Served by Kern Transit 227
<ul><li>Weekday: 4 trips a day</li><li>Weekend: No service</li></ul>
]]>
    </description>
    <styleUrl>#bus-weekday-only</styleUrl>
    <Point>
      <coordinates>-117.67106466747188,35.56535394322547,0</coordinates>
    </Point>
  </Placemark>

  <Placemark>
    <name>Columbia State Historic Park</name>
    <description>
<![CDATA[
<h4>Stop: Columbia State Park (Head Quarters)</h4>
Historical park, not for hiking.
<br>
<b>0 min walk</b><br>
Served by Tuolumne County Transit R2
<ul><li>Weekday: 4 trips a day</li><li>Weekend: No service</li></ul>
]]>
    </description>
    <styleUrl>#bus-weekday-only</styleUrl>
    <Point>
      <coordinates>-120.40217,38.03371,0</coordinates>
    </Point>
  </Placemark>

  <Placemark>
    <name>Coyote Creek Trail: Silicon Valley Blvd Trailhead</name>
    <description>
<![CDATA[
<h4>Stop: Silicon Valley &amp; Eden Park</h4>
<b>0 min walk</b><br>
Served by VTA 42
<ul><li>Weekday: About hourly</li><li>Weekend: No service</li></ul>
]]>
    </description>
    <styleUrl>#bus-weekday-only</styleUrl>
    <Point>
      <coordinates>-121.7723708,37.2487506,0</coordinates>
    </Point>
  </Placemark>

  <Placemark>
    <name>Coyote Creek Trail: Silver Creek Valley Trailhead</name>
    <description>
<![CDATA[
<h4>Stop: Silver Creek Valley &amp; Silver Creek Valley Pl</h4>
<b>2 min walk</b><br>
Served by VTA 42
<ul><li>Weekday: About hourly</li><li>Weekend: No service</li></ul>
]]>
    </description>
    <styleUrl>#bus-weekday-only</styleUrl>
    <Point>
      <coordinates>-121.7909008,37.2576627,0</coordinates>
    </Point>
  </Placemark>

  <Placemark>
    <name>DeLaveaga Park: Enchanted Trail</name>
    <description>
<![CDATA[
<h4>Stop: Emeline Ave &amp; Avalon</h4>
<b>18 min walk</b><br>
Served by Santa Cruz METRO 34
<ul><li>Weekday: About hourly</li><li>Weekend: No service</li></ul>
]]>
    </description>
    <styleUrl>#bus-weekday-only</styleUrl>
    <Point>
      <coordinates>-122.01128444620686,36.993389571745475,0</coordinates>
    </Point>
  </Placemark>

  <Placemark>
    <name>Dunsmuir Hills: Kerrigan Dr Trailhead</name>
    <description>
<![CDATA[
<h4>Stop: Golf Links Rd &amp; Scotia Av</h4>
<b>30 min walk</b><br>
Served by AC Transit 46L
<ul><li>Weekday: Every 30–45 minutes</li><li>Weekend: No service</li></ul>
]]>
    </description>
    <styleUrl>#bus-weekday-only</styleUrl>
    <Point>
      <coordinates>-122.1341678,37.7443795,0</coordinates>
    </Point>
  </Placemark>

  <Placemark>
    <name>Dunsmuir Hills: Lochard St Trailhead</name>
    <description>
<![CDATA[
<h4>Stop: Golf Links Rd &amp; Scotia Av</h4>
<b>28 min walk</b><br>
Served by AC Transit 46L
<ul><li>Weekday: Every 30–45 minutes</li><li>Weekend: No service</li></ul>
]]>
    </description>
    <styleUrl>#bus-weekday-only</styleUrl>
    <Point>
      <coordinates>-122.1298528,37.7438125,0</coordinates>
    </Point>
  </Placemark>

  <Placemark>
    <name>El Dorado Trail: Smithflat</name>
    <description>
<![CDATA[
<h4>Stop: Smith Flat Rd. at School St. (West)</h4>
<b>4 min walk</b><br>
Served by El Dorado Transit 20
<ul><li>Weekday: Every 1–2 hours</li><li>Weekend: No service</li></ul>
]]>
    </description>
    <styleUrl>#bus-weekday-only</styleUrl>
    <Point>
      <coordinates>-120.75659113764588,38.73395219446805,0</coordinates>
    </Point>
  </Placemark>

  <Placemark>
    <name>El Dorado Trail: Verde Robles Dr</name>
    <description>
<![CDATA[
<h4>Stop: Camino Heights Park and Ride</h4>
<b>19 min walk</b><br>
Served by El Dorado Transit 60
<ul><li>Weekday: Every 1–2 hours</li><li>Weekend: No service</li></ul>
]]>
    </description>
    <styleUrl>#bus-weekday-only</styleUrl>
    <Point>
      <coordinates>-120.71480772620119,38.72963655957292,0</coordinates>
    </Point>
  </Placemark>

  <Placemark>
    <name>Fernandez Ranch: Coronado Canyon Trailhead</name>
    <description>
<![CDATA[
<h4>Stop: Armstrong St and Grissom St</h4>
<b>5 min walk</b><br>
Served by WestCat 12
<ul><li>Weekday: Every 1–2 hours</li><li>Weekend: No service</li></ul>
]]>
    </description>
    <styleUrl>#bus-weekday-only</styleUrl>
    <Point>
      <coordinates>-122.2354116,37.9998645,0</coordinates>
    </Point>
  </Placemark>

  <Placemark>
    <name>Fort Ord National Monument: Gigling Rd</name>
    <description>
<![CDATA[
<h4>Stop: Gen Moore Blvd / Gigling Rd</h4>
<b>23 min walk</b><br>
Served by 17
<ul><li>Weekday: Frequent service</li><li>Weekend: No service</li></ul>
]]>
    </description>
    <styleUrl>#bus-weekday-only</styleUrl>
    <Point>
      <coordinates>-121.78742045827826,36.64368157410471,0</coordinates>
    </Point>
  </Placemark>

  <Placemark>
    <name>Glen Eagle Open Space: Drakes Point/Old Rocky Trailhead</name>
    <description>
<![CDATA[
<h4>Stop: Brown St. at Markham Ave.</h4>
<b>14 min walk</b><br>
Served by City Coach 2
<ul><li>Weekday: 9 trips a day</li><li>Weekend: No service</li></ul>
]]>
    </description>
    <styleUrl>#bus-weekday-only</styleUrl>
    <Point>
      <coordinates>-121.9810719,38.3774101,0</coordinates>
    </Point>
  </Placemark>

  <Placemark>
    <name>Greenwood State Beach</name>
    <description>
<![CDATA[
<h4>Stop: Elk</h4>
<b>0 min walk</b><br>
Served by MTA 75
<ul><li>Weekday: 2 trips a day</li><li>Weekend: No service</li></ul>
]]>
    </description>
    <styleUrl>#bus-weekday-only</styleUrl>
    <Point>
      <coordinates>-123.7176665,39.1279239,0</coordinates>
    </Point>
  </Placemark>

  <Placemark>
    <name>Hercules Open Space</name>
    <description>
<![CDATA[
<h4>Stop: Refugio Valley and Falcon Way</h4>
<b>0 min walk</b><br>
Served by WestCat 12
<ul><li>Weekday: Every 1–2 hours</li><li>Weekend: No service</li></ul>
]]>
    </description>
    <styleUrl>#bus-weekday-only</styleUrl>
    <Point>
      <coordinates>-122.2480832,37.996625,0</coordinates>
    </Point>
  </Placemark>

  <Placemark>
    <name>Indian Valley Preserve: Indian Valley College</name>
    <description>
<![CDATA[
<h4>Stop: Indian Valley College</h4>
<b>12 min walk</b><br>
Served by Marin Transit 57
<ul><li>Weekday: Every 30–45 minutes</li><li>Weekend: No service</li></ul>
]]>
    </description>
    <styleUrl>#bus-weekday-only</styleUrl>
    <Point>
      <coordinates>-122.5817464,38.0728435,0</coordinates>
    </Point>
  </Placemark>

  <Placemark>
    <name>Indian Valley Preserve: Indian Valley Fire Rd Trailhead</name>
    <description>
<![CDATA[
<h4>Stop: Indian Valley College</h4>
<b>29 min walk</b><br>
Served by Marin Transit 57
<ul><li>Weekday: Every 30–45 minutes</li><li>Weekend: No service</li></ul>
]]>
    </description>
    <styleUrl>#bus-weekday-only</styleUrl>
    <Point>
      <coordinates>-122.59009,38.085811,0</coordinates>
    </Point>
  </Placemark>

  <Placemark>
    <name>Irish Hills Natural Reserve: Madonna Rd</name>
    <description>
<![CDATA[
<h4>Stop: LOVR at Madonna</h4>
<b>8 min walk</b><br>
Served by 10866883, 11096761
<ul><li>Weekday: 9 trips a day</li><li>Weekend: No service</li></ul>
]]>
    </description>
    <styleUrl>#bus-weekday-only</styleUrl>
    <Point>
      <coordinates>-120.69539853280003,35.25437744097134,0</coordinates>
    </Point>
  </Placemark>

  <Placemark>
    <name>Klamath National Forest / Pacific Crest Trail: Klamath River Trailhead</name>
    <description>
<![CDATA[
<h4>Stop: Seiad Valley Country Store</h4>
The Pacific Crest Trail runs down Hwy 96 in this area.
<br>
Served by Siskiyou STAGE 6
<ul><li>Served less than once daily. Check schedules for details.</li></ul>
]]>
    </description>
    <styleUrl>#bus-weekday-only</styleUrl>
    <Point>
      <coordinates>-123.21033075410065,41.84442935925978,0</coordinates>
    </Point>
  </Placemark>

  <Placemark>
    <name>Knowland Park: Arroyo Viejo Trail</name>
    <description>
<![CDATA[
<h4>Stop: Golf Links Rd &amp; Anza Av</h4>
<b>0 min walk</b><br>
Served by AC Transit 46L
<ul><li>Weekday: Every 30–45 minutes</li><li>Weekend: No service</li></ul>
]]>
    </description>
    <styleUrl>#bus-weekday-only</styleUrl>
    <Point>
      <coordinates>-122.1483191,37.7540831,0</coordinates>
    </Point>
  </Placemark>

  <Placemark>
    <name>Knowland Park: Cotter St</name>
    <description>
<![CDATA[
<h4>Stop: Golf Links Rd &amp; Scotia Av</h4>
<b>8 min walk</b><br>
Served by AC Transit 46L
<ul><li>Weekday: Every 30–45 minutes</li><li>Weekend: No service</li></ul>
]]>
    </description>
    <styleUrl>#bus-weekday-only</styleUrl>
    <Point>
      <coordinates>-122.1239291,37.7562091,0</coordinates>
    </Point>
  </Placemark>

  <Placemark>
    <name>Knowland Park: Fallbrook Way</name>
    <description>
<![CDATA[
<h4>Stop: Golf Links Rd &amp; Scotia Av</h4>
<b>14 min walk</b><br>
Served by AC Transit 46L
<ul><li>Weekday: Every 30–45 minutes</li><li>Weekend: No service</li></ul>
]]>
    </description>
    <styleUrl>#bus-weekday-only</styleUrl>
    <Point>
      <coordinates>-122.1295742,37.7534887,0</coordinates>
    </Point>
  </Placemark>

  <Placemark>
    <name>Knowland Park: Fire Road</name>
    <description>
<![CDATA[
<h4>Stop: Golf Links Rd &amp; Elysian Fields Dr</h4>
WARNING: the walk to the trailhead involves walking along the shoulder of Golf Links Rd. Be cautious and stay safe!
<br>
<b>7 min walk</b><br>
Served by AC Transit 46L
<ul><li>Weekday: Every 30–45 minutes</li><li>Weekend: No service</li></ul>
]]>
    </description>
    <styleUrl>#bus-weekday-only</styleUrl>
    <Point>
      <coordinates>-122.1379451,37.7576157,0</coordinates>
    </Point>
  </Placemark>

  <Placemark>
    <name>Lake Oroville State Recreation Area: Saddle Dam Day Use Area</name>
    <description>
<![CDATA[
<h4>Stop: Olive Hwy &amp; Saddle Drive</h4>
<b>21 min walk</b><br>
Served by B-Line 26
<ul><li>Weekday: Frequent service</li><li>Weekend: No service</li></ul>
]]>
    </description>
    <styleUrl>#bus-weekday-only</styleUrl>
    <Point>
      <coordinates>-121.46345612646051,39.51304673836286,0</coordinates>
    </Point>
  </Placemark>

  <Placemark>
    <name>Lake Oroville State Recreation Area: Visitor Center</name>
    <description>
<![CDATA[
<h4>Stop: Kelly Ridge &amp; Royal Oaks</h4>
<b>3 min walk</b><br>
Served by B-Line 26
<ul><li>Weekday: Frequent service</li><li>Weekend: No service</li></ul>
]]>
    </description>
    <styleUrl>#bus-weekday-only</styleUrl>
    <Point>
      <coordinates>-121.46729858076353,39.53362850802186,0</coordinates>
    </Point>
  </Placemark>

  <Placemark>
    <name>Lassen National Forest / Pacific Crest Trail: Etna Summit Trailhead</name>
    <description>
<![CDATA[
<h4>Stop: Across from Etna Ray&#x27;s Market</h4>
Long-distance access to the Pacific Crest Trail. Approximately 10mi on Sawyers Bar Rd. Used primarily by thru-hikers for resupply or repositioning.
<br>
<b>240 min walk</b><br>
Served by Siskiyou STAGE 4, Siskiyou STAGE 5
<ul><li>Weekday: 9 trips a day</li><li>Weekend: No service</li></ul>
]]>
    </description>
    <styleUrl>#bus-weekday-only</styleUrl>
    <Point>
      <coordinates>-122.99390650414028,41.39490172042857,0</coordinates>
    </Point>
  </Placemark>

  <Placemark>
    <name>Lassen National Forest / Pacific Crest Trail: Forest Route 7R02 for Fall River Mills</name>
    <description>
<![CDATA[
7-8mi between trail and town
<br>
<h4>Stop: Shell Station (43202 Hwy. 299 E) Fall River Mills</h4>
<b>177 min walk</b><br>
Served by Sage Stage Redding
<ul><li>Served less than once daily. Check schedules for details.</li></ul>
]]>
    </description>
    <styleUrl>#bus-weekday-only</styleUrl>
    <Point>
      <coordinates>-121.47759384802958,40.92231943671424,0</coordinates>
    </Point>
  </Placemark>

  <Placemark>
    <name>Lassen National Forest / Pacific Crest Trail: Hwy 299</name>
    <description>
<![CDATA[
<h4>Stop: McDonalds Burney</h4>
<b>144 min walk</b><br>
Served by Sage Stage Redding
<ul><li>Served less than once daily. Check schedules for details.</li></ul>
<h4>Stop: SR 89 @ SR 299 Park and Ride Lot</h4>
<b>57 min walk</b><br>
Served by RABA 299X
<ul><li>Weekday: 6 trips a day</li><li>Weekend: No service</li></ul>
]]>
    </description>
    <styleUrl>#bus-weekday-only</styleUrl>
    <Point>
      <coordinates>-121.57672971378467,40.9638003361752,0</coordinates>
    </Point>
  </Placemark>

  <Placemark>
    <name>Lime Ridge Open Space: Treat Boulevard</name>
    <description>
<![CDATA[
<h4>Stop: Treat Blvd and Navaronne Way</h4>
<b>5 min walk</b><br>
Served by CC 15
<ul><li>Weekday: About hourly</li><li>Weekend: No service</li></ul>
]]>
    </description>
    <styleUrl>#bus-weekday-only</styleUrl>
    <Point>
      <coordinates>-122.0088702,37.947999,0</coordinates>
    </Point>
  </Placemark>

  <Placemark>
    <name>Modoc Line Rail-Trail: Likely Trailhead</name>
    <description>
<![CDATA[
<a href="https://lassenlandandtrailstrust.org/modoc-line-rail-trail">Read about the Modoc Line Rail-Trail on the Lassen Land and Trails Trust website</a>
<br>
<h4>Stop: Likely General Store</h4>
<b>2 min walk</b><br>
Served by Sage Stage Reno
<ul><li>Weekday: 1 trip a day</li><li>Weekend: No service</li></ul>
]]>
    </description>
    <styleUrl>#bus-weekday-only</styleUrl>
    <Point>
      <coordinates>-120.50142665026914,41.230524945774285,0</coordinates>
    </Point>
  </Placemark>

  <Placemark>
    <name>Modoc Line Rail-Trail: Madeline Trailhead</name>
    <description>
<![CDATA[
<a href="https://lassenlandandtrailstrust.org/modoc-line-rail-trail">Read about the Modoc Line Rail-Trail on the Lassen Land and Trails Trust website</a>
<br>
<h4>Stop: Madeline Old Chevron</h4>
<b>4 min walk</b><br>
Served by Sage Stage Reno
<ul><li>Weekday: 1 trip a day</li><li>Weekend: No service</li></ul>
]]>
    </description>
    <styleUrl>#bus-weekday-only</styleUrl>
    <Point>
      <coordinates>-120.47353939861274,41.051676867610844,0</coordinates>
    </Point>
  </Placemark>

  <Placemark>
    <name>Morro Bay</name>
    <description>
<![CDATA[
Transit access to and around beaches in Morro Bay via frequent stops on SLORTA buses and local Morro Bay Transit fixed route service, as well as summer trolleys to campgrounds.
<br>
<h4>Stop: Market Avenue &amp; Morro Bay Boulevard</h4>
<b>0 min walk</b><br>
Served by SLORTA 31
<ul><li>Weekday: Every 1–2 hours</li><li>Weekend: No service</li></ul>
]]>
    </description>
    <styleUrl>#bus-weekday-only</styleUrl>
    <Point>
      <coordinates>-120.8524,35.36588,0</coordinates>
    </Point>
  </Placemark>

  <Placemark>
    <name>Morro Bay State Park: Ridgeway St</name>
    <description>
<![CDATA[
<h4>Stop: Piney Way &amp; Anchor Street</h4>
<b>18 min walk</b><br>
Served by SLORTA 31
<ul><li>Weekday: Every 1–2 hours</li><li>Weekend: No service</li></ul>
]]>
    </description>
    <styleUrl>#bus-weekday-only</styleUrl>
    <Point>
      <coordinates>-120.83670900969585,35.35930139029739,0</coordinates>
    </Point>
  </Placemark>

  <Placemark>
    <name>Mount Konocti County Park: Black Forest</name>
    <description>
<![CDATA[
<h4>Stop: Buckingham Country Club</h4>
<b>10 min walk</b><br>
Served by Lake Transit 4a
<ul><li>Weekday: 2 trips a day</li><li>Weekend: No service</li></ul>
]]>
    </description>
    <styleUrl>#bus-weekday-only</styleUrl>
    <Point>
      <coordinates>-122.7574896,38.9965969,0</coordinates>
    </Point>
  </Placemark>

  <Placemark>
    <name>Mount Wanda: Riparian Trail</name>
    <description>
<![CDATA[
<h4>Stop: Alhambra Ave and Alhambra Valley Rd</h4>
<b>0 min walk</b><br>
Served by CC 16
<ul><li>Weekday: About hourly</li><li>Weekend: No service</li></ul>
]]>
    </description>
    <styleUrl>#bus-weekday-only</styleUrl>
    <Point>
      <coordinates>-122.1267652,37.9842712,0</coordinates>
    </Point>
  </Placemark>

  <Placemark>
    <name>Navarro River Redwoods State Park: Navarro Beach</name>
    <description>
<![CDATA[
<h4>Stop: Navarro River Junction</h4>
<b>15 min walk</b><br>
Served by MTA 60, MTA 75
<ul><li>Weekday: 6 trips a day</li><li>Weekend: No service</li></ul>
]]>
    </description>
    <styleUrl>#bus-weekday-only</styleUrl>
    <Point>
      <coordinates>-123.7482255,39.1963901,0</coordinates>
    </Point>
  </Placemark>

  <Placemark>
    <name>Pinole Open Space</name>
    <description>
<![CDATA[
<h4>Stop: Doidge Ave and Wright Ave</h4>
<b>7 min walk</b><br>
Served by WestCat 16
<ul><li>Weekday: About hourly</li><li>Weekend: No service</li></ul>
]]>
    </description>
    <styleUrl>#bus-weekday-only</styleUrl>
    <Point>
      <coordinates>-122.2501927,37.9881989,0</coordinates>
    </Point>
  </Placemark>

  <Placemark>
    <name>Pinole Valley Park</name>
    <description>
<![CDATA[
<h4>Stop: Pinole Valley Rd and Simas Ave</h4>
<b>0 min walk</b><br>
Served by WestCat 16
<ul><li>Weekday: About hourly</li><li>Weekend: No service</li></ul>
]]>
    </description>
    <styleUrl>#bus-weekday-only</styleUrl>
    <Point>
      <coordinates>-122.26697,37.9814,0</coordinates>
    </Point>
  </Placemark>

  <Placemark>
    <name>Plumas National Forest: Beckwourth Peak Trailhead</name>
    <description>
<![CDATA[
<h4>Stop: 440 S. Gulling (Portola Post Office)</h4>
<b>1 min walk</b><br>
Served by Plumas Transit East County
<ul><li>Weekday: 8 trips a day</li><li>Weekend: No service</li></ul>
]]>
    </description>
    <styleUrl>#bus-weekday-only</styleUrl>
    <Point>
      <coordinates>-120.46542282373092,39.805583880719645,0</coordinates>
    </Point>
  </Placemark>

  <Placemark>
    <name>Plumas National Forest: Canyondam Trail</name>
    <description>
<![CDATA[
<h4>Stop: 29571 Hwy 89 Canyon Dam</h4>
<b>17 min walk</b><br>
Served by Plumas Transit North County
<ul><li>Weekday: 4 trips a day</li><li>Weekend: No service</li></ul>
]]>
    </description>
    <styleUrl>#bus-weekday-only</styleUrl>
    <Point>
      <coordinates>-121.08380639500959,40.168762394945134,0</coordinates>
    </Point>
  </Placemark>

  <Placemark>
    <name>Plumas National Forest: Mount Hough Ranger District Office</name>
    <description>
<![CDATA[
Access to Forest Roads around Snake Lake
<br>
<h4>Stop: 39300 Hwy 70 (Evergreen Trailer Park)</h4>
<b>9 min walk</b><br>
Served by Plumas Transit North County, Plumas Transit Quincy Local
<ul><li>Weekday: Every 1–2 hours</li><li>Weekend: No service</li></ul>
]]>
    </description>
    <styleUrl>#bus-weekday-only</styleUrl>
    <Point>
      <coordinates>-120.93917580645171,39.97733722554757,0</coordinates>
    </Point>
  </Placemark>

  <Placemark>
    <name>Plumas National Forest: Quincy Powerline Trail</name>
    <description>
<![CDATA[
<h4>Stop: 270 Hospital Rd (Courthouse Annex)</h4>
<b>26 min walk</b><br>
Served by Plumas Transit East County, Plumas Transit North County, Plumas Transit Quincy Local
<ul><li>Weekday: About hourly</li><li>Weekend: No service</li></ul>
]]>
    </description>
    <styleUrl>#bus-weekday-only</styleUrl>
    <Point>
      <coordinates>-120.95170587294143,39.961613518075616,0</coordinates>
    </Point>
  </Placemark>

  <Placemark>
    <name>Plumas National Forest: Road 23N12</name>
    <description>
<![CDATA[
Dirt road open to vehicle use. Access to McDermott Ravine
<br>
<h4>Stop: Sloat Rd / Cromberg</h4>
<b>29 min walk</b><br>
Served by Plumas Transit East County
<ul><li>Weekday: 5 trips a day</li><li>Weekend: No service</li></ul>
]]>
    </description>
    <styleUrl>#bus-weekday-only</styleUrl>
    <Point>
      <coordinates>-120.72762179999299,39.88003621118041,0</coordinates>
    </Point>
  </Placemark>

  <Placemark>
    <name>Plumas National Forest: Road 26N81</name>
    <description>
<![CDATA[
Dirt forest service road, motor vehicles may be present
<br>
<h4>Stop: Wolf Creek Rd at Higbie Ave</h4>
<b>6 min walk</b><br>
Served by Plumas Transit North County
<ul><li>Weekday: 7 trips a day</li><li>Weekend: No service</li></ul>
]]>
    </description>
    <styleUrl>#bus-weekday-only</styleUrl>
    <Point>
      <coordinates>-120.96240463666643,40.14779133488845,0</coordinates>
    </Point>
  </Placemark>

  <Placemark>
    <name>Pogonip: Emma McCrary Trailhead</name>
    <description>
<![CDATA[
<h4>Stop: Vernon &amp; River (METRO Admin Offices)</h4>
<b>9 min walk</b><br>
Served by Santa Cruz METRO 4
<ul><li>Weekday: About hourly</li><li>Weekend: No service</li></ul>
]]>
    </description>
    <styleUrl>#bus-weekday-only</styleUrl>
    <Point>
      <coordinates>-122.03687859663529,36.99027132277304,0</coordinates>
    </Point>
  </Placemark>

  <Placemark>
    <name>Rancho San Antonio Preserve: Hammond Snyder Loop Trail</name>
    <description>
<![CDATA[
<h4>Stop: Foothill &amp; Cristo Rey</h4>
<b>7 min walk</b><br>
Served by VTA 51
<ul><li>Weekday: About hourly</li><li>Weekend: No service</li></ul>
]]>
    </description>
    <styleUrl>#bus-weekday-only</styleUrl>
    <Point>
      <coordinates>-122.0748056,37.3320538,0</coordinates>
    </Point>
  </Placemark>

  <Placemark>
    <name>Redwood National and State Parks / Jedediah Smith Redwoods State Park: Campground and Day Use</name>
    <description>
<![CDATA[
<h4>Stop: Jedidiah Smith Campground Day Use</h4>
<b>0 min walk</b><br>
Served by Redwood Coast Transit 199
<ul><li>Weekday: 2 trips a day</li><li>Weekend: No service</li></ul>
]]>
    </description>
    <styleUrl>#bus-weekday-only</styleUrl>
    <Point>
      <coordinates>-124.0847552,41.7979797,0</coordinates>
    </Point>
  </Placemark>

  <Placemark>
    <name>Redwood National and State Parks / Jedediah Smith Redwoods State Park: Hiouchi Visitor Center</name>
    <description>
<![CDATA[
<h4>Stop: Jedediah Smith Redwood SP Visitor Center</h4>
<b>0 min walk</b><br>
Served by Redwood Coast Transit 199
<ul><li>Weekday: 4 trips a day</li><li>Weekend: No service</li></ul>
]]>
    </description>
    <styleUrl>#bus-weekday-only</styleUrl>
    <Point>
      <coordinates>-124.0818722,41.7967606,0</coordinates>
    </Point>
  </Placemark>

  <Placemark>
    <name>Reservoir Canyon Natural Reserve: Lizzie Trailhead</name>
    <description>
<![CDATA[
<h4>Stop: Johnson at Lizzie (N)</h4>
<b>8 min walk</b><br>
Served by 10866826
<ul><li>Weekday: 8 trips a day</li><li>Weekend: No service</li></ul>
]]>
    </description>
    <styleUrl>#bus-weekday-only</styleUrl>
    <Point>
      <coordinates>-120.64660503780914,35.28048695891551,0</coordinates>
    </Point>
  </Placemark>

  <Placemark>
    <name>Saratoga Quarry Park</name>
    <description>
<![CDATA[
<h4>Stop: Saratoga &amp; Saratoga-Los Gatos</h4>
WARNING: dangerous walk to trailhead and often minimal to no shoulder. Not for the faint of heart.
<br>
<b>28 min walk</b><br>
Served by VTA 51
<ul><li>Weekday: Every 1–2 hours</li><li>Weekend: No service</li></ul>
]]>
    </description>
    <styleUrl>#bus-weekday-only</styleUrl>
    <Point>
      <coordinates>-122.0476422,37.2517796,0</coordinates>
    </Point>
  </Placemark>

  <Placemark>
    <name>Sequoia National Forest / Owens Peak Wilderness / Pacific Crest Trail: Walker Pass</name>
    <description>
<![CDATA[
<h4>Stop: Walker Pass at Hwy. 178 WB (781470)</h4>
<b>0 min walk</b><br>
Served by Kern Transit 227
<ul><li>Weekday: 2 trips a day</li><li>Weekend: No service</li></ul>
]]>
    </description>
    <styleUrl>#bus-weekday-only</styleUrl>
    <Point>
      <coordinates>-118.02669672658729,35.66279865996125,0</coordinates>
    </Point>
  </Placemark>

  <Placemark>
    <name>Shasta-Trinity National Forest / Bigfoot Trail: Hayfork</name>
    <description>
<![CDATA[
<a href="https://www.bigfoottrail.org/>Long-distance hiking route across the Klamath Mountains.</a>
<br>
<h4>Stop: Hayfork Library</h4>
Served by Trinity Transit Hayfork Line
<ul><li>Weekday: 2 trips a day</li><li>Weekend: No service</li></ul>
]]>
    </description>
    <styleUrl>#bus-weekday-only</styleUrl>
    <Point>
      <coordinates>-123.19088070110716,40.552742498165756,0</coordinates>
    </Point>
  </Placemark>

  <Placemark>
    <name>Shasta-Trinity National Forest / Bigfoot Trail: Junction City</name>
    <description>
<![CDATA[
<a href="https://www.bigfoottrail.org/>Long-distance hiking route across the Klamath Mountains.</a>
<br>
<h4>Stop: Junction City Store</h4>
Served by Trinity Transit Willow Creek Line
<ul><li>Weekday: 2 trips a day</li><li>Weekend: No service</li></ul>
]]>
    </description>
    <styleUrl>#bus-weekday-only</styleUrl>
    <Point>
      <coordinates>-123.05529987301365,40.72871522151823,0</coordinates>
    </Point>
  </Placemark>

  <Placemark>
    <name>Shasta-Trinity National Forest: Big Bar Ranger Station</name>
    <description>
<![CDATA[
Access to Treloar Ridge Trail
<br>
<h4>Stop: Big Bar Ranger Station (across from Corral Bottom Rd)</h4>
<b>3 min walk</b><br>
Served by Trinity Transit Willow Creek Line
<ul><li>Weekday: 2 trips a day</li><li>Weekend: No service</li></ul>
]]>
    </description>
    <styleUrl>#bus-weekday-only</styleUrl>
    <Point>
      <coordinates>-123.25152887696548,40.74067160297092,0</coordinates>
    </Point>
  </Placemark>

  <Placemark>
    <name>Shasta-Trinity National Forest: Mount Shasta Gateway Trail System</name>
    <description>
<![CDATA[
<a href="https://mountshastatrailassociation.org/trails/mt-shasta/gateway/">Read about the Gateway Trail System on the Mount Shasta Trail Association website</a>
<br>
<h4>Stop: Mount Shasta High School</h4>
<b>27 min walk</b><br>
Served by Siskiyou STAGE 2
<ul><li>Weekday: 1 trip a day</li><li>Weekend: No service</li></ul>
]]>
    </description>
    <styleUrl>#bus-weekday-only</styleUrl>
    <Point>
      <coordinates>-122.3085378188667,41.334331928825854,0</coordinates>
    </Point>
  </Placemark>

  <Placemark>
    <name>Shasta-Trinity National Forest: Weaver Basin Trails</name>
    <description>
<![CDATA[
Trailsystem adjacent to Weaverville, with access deeper into Shasta-Trinity National Forest. <a href="https://www.tcrcd.net/index.php/2014-02-05-08-30-03/weaverville-basin-trail-system">Read more on the Trinity County Resource Conservation Distict website.</a>
<br>
<h4>Stop: Weaverville Library</h4>
Served by Trinity Transit Hayfork Line, Trinity Transit Lewiston Line, Trinity Transit Redding Line, Trinity Transit Willow Creek Line
<ul><li>Weekday: Every 1–2 hours</li><li>Weekend: No service</li></ul>
]]>
    </description>
    <styleUrl>#bus-weekday-only</styleUrl>
    <Point>
      <coordinates>-122.94232588349372,40.73521820896141,0</coordinates>
    </Point>
  </Placemark>

  <Placemark>
    <name>Sierra National Forest: Chepo Saddle Trailhead</name>
    <description>
<![CDATA[
<h4>Stop: Bass Lake - Government Center</h4>
<b>26 min walk</b><br>
Served by Madera County Connection Eastern Madera County
<ul><li>Weekday: 5 trips a day</li><li>Weekend: No service</li></ul>
]]>
    </description>
    <styleUrl>#bus-weekday-only</styleUrl>
    <Point>
      <coordinates>-119.5911776391325,37.34909678212809,0</coordinates>
    </Point>
  </Placemark>

  <Placemark>
    <name>Sky Point Trailhead</name>
    <description>
<![CDATA[
<h4>Stop: Cerro Coso Community College (2740476)</h4>
<b>18 min walk</b><br>
Served by Kern Transit 227
<ul><li>Weekday: 4 trips a day</li><li>Weekend: No service</li></ul>
]]>
    </description>
    <styleUrl>#bus-weekday-only</styleUrl>
    <Point>
      <coordinates>-117.66214138157281,35.576828087546296,0</coordinates>
    </Point>
  </Placemark>

  <Placemark>
    <name>South Hills Natural Reserve: Arezzo Dr</name>
    <description>
<![CDATA[
<h4>Stop: Higuera at Margarita (DMV)</h4>
<b>17 min walk</b><br>
Served by 10866883
<ul><li>Weekday: 8 trips a day</li><li>Weekend: No service</li></ul>
]]>
    </description>
    <styleUrl>#bus-weekday-only</styleUrl>
    <Point>
      <coordinates>-120.66047637683972,35.259098915217756,0</coordinates>
    </Point>
  </Placemark>

  <Placemark>
    <name>South Hills Natural Reserve: Woodbridge St</name>
    <description>
<![CDATA[
<h4>Stop: South at King (E)</h4>
<b>7 min walk</b><br>
Served by 10866849
<ul><li>Weekday: About hourly</li><li>Weekend: No service</li></ul>
]]>
    </description>
    <styleUrl>#bus-weekday-only</styleUrl>
    <Point>
      <coordinates>-120.6644051691877,35.26662066806601,0</coordinates>
    </Point>
  </Placemark>

  <Placemark>
    <name>South Yuba River State Park: Hoyt Crossing Trailhead</name>
    <description>
<![CDATA[
<h4>Stop: South Yuba River</h4>
<b>5 min walk</b><br>
Served by Nevada County Connects 7
<ul><li>Weekday: 6 trips a day</li><li>Weekend: No service</li></ul>
]]>
    </description>
    <styleUrl>#bus-weekday-only</styleUrl>
    <Point>
      <coordinates>-121.09038446506972,39.297981646032234,0</coordinates>
    </Point>
  </Placemark>

  <Placemark>
    <name>South Yuba River State Park: Independence Trail</name>
    <description>
<![CDATA[
<h4>Stop: South Yuba River</h4>
<b>13 min walk</b><br>
Served by Nevada County Connects 7
<ul><li>Weekday: 6 trips a day</li><li>Weekend: No service</li></ul>
]]>
    </description>
    <styleUrl>#bus-weekday-only</styleUrl>
    <Point>
      <coordinates>-121.0972791914762,39.2918702172522,0</coordinates>
    </Point>
  </Placemark>

  <Placemark>
    <name>Stanislaus National Forest: Arnold Rim Trailhead</name>
    <description>
<![CDATA[
<h4>Stop: Arnold - Library/Blagen Rd.</h4>
<b>18 min walk</b><br>
Served by Calaveras Connect Red Line
<ul><li>Weekday: About hourly</li><li>Weekend: No service</li></ul>
]]>
    </description>
    <styleUrl>#bus-weekday-only</styleUrl>
    <Point>
      <coordinates>-120.34378995533298,38.26502855789687,0</coordinates>
    </Point>
  </Placemark>

  <Placemark>
    <name>Stanislaus National Forest: Lakemont Dr</name>
    <description>
<![CDATA[
<h4>Stop: Arnold - Big Trees Market</h4>
<b>31 min walk</b><br>
Served by Calaveras Connect Red Line
<ul><li>Weekday: About hourly</li><li>Weekend: No service</li></ul>
]]>
    </description>
    <styleUrl>#bus-weekday-only</styleUrl>
    <Point>
      <coordinates>-120.37665140506985,38.243205566127216,0</coordinates>
    </Point>
  </Placemark>

  <Placemark>
    <name>Stanislaus National Forest: Lyons Reservoir Rd</name>
    <description>
<![CDATA[
<h4>Stop: Sierra Village</h4>
<b>15 min walk</b><br>
Served by Tuolumne County Transit R2
<ul><li>Weekday: 8 trips a day</li><li>Weekend: No service</li></ul>
]]>
    </description>
    <styleUrl>#bus-weekday-only</styleUrl>
    <Point>
      <coordinates>-120.1635897926512,38.07935804960472,0</coordinates>
    </Point>
  </Placemark>

  <Placemark>
    <name>Stanislaus National Forest: Main Tuolumne Ditch Trail</name>
    <description>
<![CDATA[
<h4>Stop: Twain Harte Market</h4>
<b>44 min walk</b><br>
Served by Tuolumne County Transit R2
<ul><li>Weekday: 8 trips a day</li><li>Weekend: No service</li></ul>
]]>
    </description>
    <styleUrl>#bus-weekday-only</styleUrl>
    <Point>
      <coordinates>-120.22928341804487,38.05661526333288,0</coordinates>
    </Point>
  </Placemark>

  <Placemark>
    <name>Stanislaus National Forest: Main Tuolumne Ditch Trail Access Trail</name>
    <description>
<![CDATA[
<h4>Stop: Sugar Pine (Across from Sugar Shack)</h4>
<b>30 min walk</b><br>
Served by Tuolumne County Transit R2
<ul><li>Weekday: 4 trips a day</li><li>Weekend: No service</li></ul>
]]>
    </description>
    <styleUrl>#bus-weekday-only</styleUrl>
    <Point>
      <coordinates>-120.21547499267423,38.05533789649423,0</coordinates>
    </Point>
  </Placemark>

  <Placemark>
    <name>Stevens Creek County Park: Rim Trail</name>
    <description>
<![CDATA[
<h4>Stop: Foothill &amp; Cupertino</h4>
<b>22 min walk</b><br>
Served by VTA 51
<ul><li>Weekday: About hourly</li><li>Weekend: No service</li></ul>
]]>
    </description>
    <styleUrl>#bus-weekday-only</styleUrl>
    <Point>
      <coordinates>-122.0721175,37.3076421,0</coordinates>
    </Point>
  </Placemark>

  <Placemark>
    <name>Stevens Trail</name>
    <description>
<![CDATA[
<h4>Stop: Colfax Depot</h4>
<b>26 min walk</b><br>
Served by Placer County Transit 40, Placer County Transit 60
<ul><li>Weekday: 8 trips a day</li><li>Weekend: No service</li></ul>
]]>
    </description>
    <styleUrl>#bus-weekday-only</styleUrl>
    <Point>
      <coordinates>-120.94718120161059,39.105543843341906,0</coordinates>
    </Point>
  </Placemark>

  <Placemark>
    <name>Strawberry Canyon: Lower Fire Trail</name>
    <description>
<![CDATA[
<h4>Stop: UC Botanical Garden</h4>
<b>5 min walk</b><br>
Served by Bear Transit 17651
<ul><li>Weekday: About hourly</li><li>Weekend: No service</li></ul>
]]>
    </description>
    <styleUrl>#bus-weekday-only</styleUrl>
    <Point>
      <coordinates>-122.2413312,37.8726414,0</coordinates>
    </Point>
  </Placemark>

  <Placemark>
    <name>Tilden Regional Park: Grizzly Peak Trail</name>
    <description>
<![CDATA[
<h4>Stop: Space Sciences Lab / MSRI</h4>
<b>6 min walk</b><br>
Served by Bear Transit 17651
<ul><li>Weekday: About hourly</li><li>Weekend: No service</li></ul>
]]>
    </description>
    <styleUrl>#bus-weekday-only</styleUrl>
    <Point>
      <coordinates>-122.2453321,37.8831882,0</coordinates>
    </Point>
  </Placemark>

  <Placemark>
    <name>Tilden Regional Park: Selby Trail (north)</name>
    <description>
<![CDATA[
<h4>Stop: Spruce St &amp; Grizzly Peak Blvd</h4>
<b>3 min walk</b><br>
Served by AC Transit 67
<ul><li>Weekday: Every 30–45 minutes</li><li>Weekend: No service</li></ul>
]]>
    </description>
    <styleUrl>#bus-weekday-only</styleUrl>
    <Point>
      <coordinates>-122.2676233,37.9043683,0</coordinates>
    </Point>
  </Placemark>

  <Placemark>
    <name>Tilden Regional Park: Selby Trail (south)</name>
    <description>
<![CDATA[
<h4>Stop: Grizzly Peak Blvd &amp; Shasta Rd</h4>
<b>4 min walk</b><br>
Served by AC Transit 65
<ul><li>Weekday: Every 30–45 minutes</li><li>Weekend: No service</li></ul>
]]>
    </description>
    <styleUrl>#bus-weekday-only</styleUrl>
    <Point>
      <coordinates>-122.2491398,37.8912486,0</coordinates>
    </Point>
  </Placemark>

  <Placemark>
    <name>UC Berkeley: Jordan Trail</name>
    <description>
<![CDATA[
<h4>Stop: Space Sciences Lab / MSRI</h4>
<b>2 min walk</b><br>
Served by Bear Transit 17651
<ul><li>Weekday: About hourly</li><li>Weekend: No service</li></ul>
]]>
    </description>
    <styleUrl>#bus-weekday-only</styleUrl>
    <Point>
      <coordinates>-122.2432031,37.880243,0</coordinates>
    </Point>
  </Placemark>

  <Placemark>
    <name>Upper Bidwell Park: Hooker Oak Park</name>
    <description>
<![CDATA[
<h4>Stop: Manzanita Ave &amp; Hooker Oak Ave</h4>
<b>0 min walk</b><br>
Served by B-Line 7
<ul><li>Weekday: Frequent service</li><li>Weekend: No service</li></ul>
]]>
    </description>
    <styleUrl>#bus-weekday-only</styleUrl>
    <Point>
      <coordinates>-121.79937962195318,39.7599881230796,0</coordinates>
    </Point>
  </Placemark>

  <Placemark>
    <name>Van Damme State Park: Visitor Center</name>
    <description>
<![CDATA[
<h4>Stop: Little River Market</h4>
<b>5 min walk</b><br>
Served by MTA 60
<ul><li>Weekday: 8 trips a day</li><li>Weekend: No service</li></ul>
]]>
    </description>
    <styleUrl>#bus-weekday-only</styleUrl>
    <Point>
      <coordinates>-123.7886261,39.2751342,0</coordinates>
    </Point>
  </Placemark>
</Document></kml>
